{
  "type": "FeatureCollection",
  "features": [
    {
      "type": "Feature",
      "properties": {
        "name": "1"
      },
      "geometry": {
        "type": "Polygon",
        "coordinates": [
          [
            [
              -121.31120681762697,
              38.72298557231016
            ],
            [
              -121.35562419891359,
              38.72603233954158
            ],
            [
              -121.35558128356935,
              38.728878103673765
            ],
            [
              -121.36476516723634,
              38.72881114581985
            ],
            [
              -121.3647222518921,
              38.745381300302924
            ],
            [
              -121.36364936828615,
              38.74641889922928
            ],
            [
              -121.36021614074708,
              38.7481593538904
            ],
            [
              -121.35845661163331,
              38.749632013156784
            ],
            [
              -121.35854244232178,
              38.75177400877031
            ],
            [
              -121.33704185485841,
              38.75197481756392
            ],
            [
              -121.33687019348146,
              38.75518768143609
            ],
            [
              -121.33596897125246,
              38.75712871661301
            ],
            [
              -121.33463859558107,
              38.75833347051689
            ],
            [
              -121.33150577545167,
              38.75712871661301
            ],
            [
              -121.3282871246338,
              38.75652633203478
            ],
            [
              -121.32712841033936,
              38.756225137839074
            ],
            [
              -121.32742881774904,
              38.75538848062646
            ],
            [
              -121.32562637329103,
              38.75502034834591
            ],
            [
              -121.32519721984865,
              38.756024341002494
            ],
            [
              -121.3239097595215,
              38.75605780718115
            ],
            [
              -121.32197856903078,
              38.756392468104714
            ],
            [
              -121.31927490234376,
              38.75726257916218
            ],
            [
              -121.31687164306642,
              38.75850079583954
            ],
            [
              -121.31442546844484,
              38.7591700932071
            ],
            [
              -121.31159305572511,
              38.7592035579107
            ],
            [
              -121.30987644195558,
              38.75913662848781
            ],
            [
              -121.30987644195558,
              38.754752614585676
            ],
            [
              -121.30931854248047,
              38.75314619093471
            ],
            [
              -121.30927562713624,
              38.75117157900019
            ],
            [
              -121.30910396575929,
              38.74169937598144
            ],
            [
              -121.30785942077638,
              38.739456656314374
            ],
            [
              -121.3057565689087,
              38.73784988847274
            ],
            [
              -121.30399703979494,
              38.73661131358948
            ],
            [
              -121.30206584930421,
              38.73480362521081
            ],
            [
              -121.30172252655031,
              38.73282850597838
            ],
            [
              -121.3022804260254,
              38.73108767764749
            ],
            [
              -121.30481243133546,
              38.728141563829254
            ],
            [
              -121.31120681762697,
              38.72298557231016
            ]
          ]
        ]
      }
    },
    {
      "type": "Feature",
      "properties": {
        "name": "2"
      },
      "geometry": {
        "type": "Polygon",
        "coordinates": [
          [
            [
              -121.34594678878786,
              38.70371427207194
            ],
            [
              -121.34596824645996,
              38.70508737759084
            ],
            [
              -121.34639739990236,
              38.70671162690479
            ],
            [
              -121.34706258773805,
              38.70788374266403
            ],
            [
              -121.3473415374756,
              38.70885490973653
            ],
            [
              -121.34747028350831,
              38.712689216378635
            ],
            [
              -121.34712696075441,
              38.71426306437445
            ],
            [
              -121.35502338409425,
              38.71426306437445
            ],
            [
              -121.35465860366823,
              38.71525088743723
            ],
            [
              -121.3537359237671,
              38.71588710523298
            ],
            [
              -121.35189056396486,
              38.71662377139536
            ],
            [
              -121.35133266448976,
              38.71746088281826
            ],
            [
              -121.35124683380128,
              38.719587101753326
            ],
            [
              -121.35051727294922,
              38.72074226504892
            ],
            [
              -121.35075330734254,
              38.72397327481946
            ],
            [
              -121.34650468826295,
              38.723621721253906
            ],
            [
              -121.34654760360719,
              38.72537947178568
            ],
            [
              -121.31115317344667,
              38.72299394272777
            ],
            [
              -121.31495118141176,
              38.7195033935426
            ],
            [
              -121.31559491157533,
              38.71890906242708
            ],
            [
              -121.31633520126344,
              38.71828961346904
            ],
            [
              -121.31708621978761,
              38.71760319078511
            ],
            [
              -121.31792306900026,
              38.71686653471738
            ],
            [
              -121.31912469863893,
              38.71583687771817
            ],
            [
              -121.32781505584717,
              38.7080176975273
            ],
            [
              -121.3281798362732,
              38.707230709111556
            ],
            [
              -121.32796525955202,
              38.70642696732047
            ],
            [
              -121.32747173309326,
              38.70597485859251
            ],
            [
              -121.32710695266725,
              38.705723685841726
            ],
            [
              -121.32775068283082,
              38.704601770116035
            ],
            [
              -121.32908105850221,
              38.70346309138033
            ],
            [
              -121.33038997650148,
              38.702575579203604
            ],
            [
              -121.33268594741823,
              38.702240666085665
            ],
            [
              -121.33513212203981,
              38.702960727350145
            ],
            [
              -121.33695602416994,
              38.70354681837556
            ],
            [
              -121.34002447128297,
              38.70364729064044
            ],
            [
              -121.3427495956421,
              38.70361379990118
            ],
            [
              -121.34594678878786,
              38.70371427207194
            ]
          ]
        ]
      }
    },
    {
      "type": "Feature",
        "properties": {
          "name": "3"
        },
        "geometry": {
          "type": "Polygon",
          "coordinates": [
            [
              [
                -121.3459897041321,
                38.70364729064044
              ],
              [
                -121.36480808258057,
                38.70389847068505
              ],
              [
                -121.36487245559694,
                38.72663498140611
              ],
              [
                -121.34656906127931,
                38.72539621205908
              ],
              [
                -121.34654760360719,
                38.723621721253906
              ],
              [
                -121.35077476501466,
                38.72399001542229
              ],
              [
                -121.35056018829347,
                38.720625075420706
              ],
              [
                -121.35090351104738,
                38.72007260744209
              ],
              [
                -121.3512682914734,
                38.719587101753326
              ],
              [
                -121.35118246078493,
                38.718482145476976
              ],
              [
                -121.35128974914552,
                38.71739391426523
              ],
              [
                -121.35191202163696,
                38.71659028673452
              ],
              [
                -121.35294198989868,
                38.716221954429834
              ],
              [
                -121.35390758514406,
                38.715769907643484
              ],
              [
                -121.35465860366823,
                38.71518391681351
              ],
              [
                -121.35491609573366,
                38.71468163513557
              ],
              [
                -121.35504484176636,
                38.71426306437445
              ],
              [
                -121.34710550308229,
                38.71429655012553
              ],
              [
                -121.3474488258362,
                38.71292362146778
              ],
              [
                -121.3474488258362,
                38.710730229509
              ],
              [
                -121.34738445281984,
                38.70880467728043
              ],
              [
                -121.34708404541017,
                38.707766531952814
              ],
              [
                -121.3464403152466,
                38.70669488225474
              ],
              [
                -121.34594678878786,
                38.70497016229543
              ],
              [
                -121.3459897041321,
                38.70364729064044
              ]
            ]
          ]
        }
      },
      {"type": "Feature",
  "properties": {
    "name": "4"
  },
  "geometry": {
    "type": "Polygon",
    "coordinates": [
      [
        [
          -121.30991935729982,
          38.75913662848781
        ],
        [
          -121.31442546844484,
          38.759220290256636
        ],
        [
          -121.31717205047609,
          38.75841713322723
        ],
        [
          -121.31994009017946,
          38.75706178524428
        ],
        [
          -121.32204294204713,
          38.75640920110971
        ],
        [
          -121.32519721984865,
          38.75604107409377
        ],
        [
          -121.32566928863527,
          38.75497014834236
        ],
        [
          -121.32740736007692,
          38.75543868033577
        ],
        [
          -121.32708549499513,
          38.75627533695996
        ],
        [
          -121.33144140243532,
          38.75712871661301
        ],
        [
          -121.33444547653198,
          38.758266540277965
        ],
        [
          -121.33461713790895,
          38.758484063324936
        ],
        [
          -121.33126974105836,
          38.762549949025214
        ],
        [
          -121.33017539978029,
          38.76499271544779
        ],
        [
          -121.32987499237062,
          38.7676361629723
        ],
        [
          -121.32989645004274,
          38.768807279301804
        ],
        [
          -121.34030342102052,
          38.76810461181103
        ],
        [
          -121.34015321731569,
          38.78123665762564
        ],
        [
          -121.3339948654175,
          38.78131192989938
        ],
        [
          -121.33398413658144,
          38.782148283150455
        ],
        [
          -121.32997155189516,
          38.782047921278256
        ],
        [
          -121.32993936538698,
          38.78083520415706
        ],
        [
          -121.32154941558838,
          38.78083520415706
        ],
        [
          -121.32163524627687,
          38.781169748871164
        ],
        [
          -121.31940364837648,
          38.78118647606566
        ],
        [
          -121.31884574890138,
          38.78190574171752
        ],
        [
          -121.31719350814821,
          38.782073011759564
        ],
        [
          -121.31558418273927,
          38.78145411064412
        ],
        [
          -121.31547689437868,
          38.781153021672715
        ],
        [
          -121.31468296051027,
          38.781169748871164
        ],
        [
          -121.31380319595338,
          38.781153021672715
        ],
        [
          -121.31384611129762,
          38.77815878994327
        ],
        [
          -121.31288051605226,
          38.774896774313596
        ],
        [
          -121.31281614303589,
          38.77379267369152
        ],
        [
          -121.31283760070802,
          38.76611368300372
        ],
        [
          -121.31275177001955,
          38.76522694892992
        ],
        [
          -121.31227970123292,
          38.764139429831545
        ],
        [
          -121.31067037582399,
          38.762198585331696
        ],
        [
          -121.30998373031618,
          38.760592329271866
        ],
        [
          -121.30991935729982,
          38.75913662848781
        ]
      ]
    ]
  }
},
{ "type": "Feature",
  "properties": {
    "name": "5"
  },
  "geometry": {
    "type": "Polygon",
    "coordinates": [
      [
        [
          -121.34021759033205,
          38.78118647606566
        ],
        [
          -121.34026050567628,
          38.76810461181103
        ],
        [
          -121.3299608230591,
          38.768807279301804
        ],
        [
          -121.3298535346985,
          38.76741866782305
        ],
        [
          -121.33017539978029,
          38.76494252245873
        ],
        [
          -121.33124828338624,
          38.76260014369734
        ],
        [
          -121.33279323577882,
          38.76072618532446
        ],
        [
          -121.33461713790895,
          38.758484063324936
        ],
        [
          -121.33594751358034,
          38.75712871661301
        ],
        [
          -121.33697748184206,
          38.755137481550214
        ],
        [
          -121.33708477020265,
          38.752008285641274
        ],
        [
          -121.35856389999391,
          38.751807476941835
        ],
        [
          -121.3586711883545,
          38.78123665762564
        ],
        [
          -121.35684728622438,
          38.78172174421808
        ],
        [
          -121.34729862213136,
          38.78147083777191
        ],
        [
          -121.3480067253113,
          38.78075156773331
        ],
        [
          -121.34757757186891,
          38.78056756725578
        ],
        [
          -121.347234249115,
          38.78071811313637
        ],
        [
          -121.34686946868898,
          38.78053411257248
        ],
        [
          -121.34236335754396,
          38.78063447657527
        ],
        [
          -121.34212732315063,
          38.780233019716626
        ],
        [
          -121.34090423583986,
          38.780935567736094
        ],
        [
          -121.34066820144655,
          38.78035011153385
        ],
        [
          -121.34011030197145,
          38.780517385224954
        ],
        [
          -121.34021759033205,
          38.78118647606566
        ]
      ]
    ]
  }
}

  ]
}
