{
    "type": "FeatureCollection",
    "features": [
        {
            "type": "Feature",
            "geometry": {
                "type": "Polygon",
                "coordinates": [
                    [
                        [
                            -121.364784,
                            38.744359
                        ],
                        [
                            -121.364739,
                            38.740365
                        ],
                        [
                            -121.364686,
                            38.736868
                        ],
                        [
                            -121.364632,
                            38.728803
                        ],
                        [
                            -121.355397,
                            38.728803
                        ],
                        [
                            -121.35537,
                            38.725903
                        ],
                        [
                            -121.364596,
                            38.726504
                        ],
                        [
                            -121.364569,
                            38.722748
                        ],
                        [
                            -121.364551,
                            38.7215
                        ],
                        [
                            -121.364488,
                            38.714933
                        ],
                        [
                            -121.36447,
                            38.713342
                        ],
                        [
                            -121.364479,
                            38.703892
                        ],
                        [
                            -121.356978,
                            38.703766
                        ],
                        [
                            -121.35431,
                            38.703731
                        ],
                        [
                            -121.348453,
                            38.703661
                        ],
                        [
                            -121.345911,
                            38.703626
                        ],
                        [
                            -121.337278,
                            38.703535
                        ],
                        [
                            -121.336344,
                            38.70343
                        ],
                        [
                            -121.335194,
                            38.703086
                        ],
                        [
                            -121.330604,
                            38.707334
                        ],
                        [
                            -121.329535,
                            38.708687
                        ],
                        [
                            -121.318701,
                            38.721143
                        ],
                        [
                            -121.318135,
                            38.721963
                        ],
                        [
                            -121.318194,
                            38.723392
                        ],
                        [
                            -121.318044,
                            38.723379
                        ],
                        [
                            -121.317872,
                            38.723369
                        ],
                        [
                            -121.311164,
                            38.72293
                        ],
                        [
                            -121.308846,
                            38.722797
                        ],
                        [
                            -121.307948,
                            38.723666
                        ],
                        [
                            -121.307643,
                            38.724205
                        ],
                        [
                            -121.307481,
                            38.725418
                        ],
                        [
                            -121.307256,
                            38.725859
                        ],
                        [
                            -121.304463,
                            38.728557
                        ],
                        [
                            -121.302136,
                            38.731865
                        ],
                        [
                            -121.301857,
                            38.732741
                        ],
                        [
                            -121.301821,
                            38.733449
                        ],
                        [
                            -121.302262,
                            38.734906
                        ],
                        [
                            -121.303259,
                            38.736161
                        ],
                        [
                            -121.306744,
                            38.738319
                        ],
                        [
                            -121.30802,
                            38.739496
                        ],
                        [
                            -121.308604,
                            38.740442
                        ],
                        [
                            -121.308972,
                            38.741395
                        ],
                        [
                            -121.309116,
                            38.743819
                        ],
                        [
                            -121.309331,
                            38.746138
                        ],
                        [
                            -121.309367,
                            38.751834
                        ],
                        [
                            -121.309403,
                            38.752983
                        ],
                        [
                            -121.309987,
                            38.755337
                        ],
                        [
                            -121.309942,
                            38.759175
                        ],
                        [
                            -121.31367,
                            38.759168
                        ],
                        [
                            -121.315305,
                            38.758986
                        ],
                        [
                            -121.316895,
                            38.758475
                        ],
                        [
                            -121.318818,
                            38.757515
                        ],
                        [
                            -121.321072,
                            38.756605
                        ],
                        [
                            -121.322923,
                            38.756114
                        ],
                        [
                            -121.324378,
                            38.755939
                        ],
                        [
                            -121.326004,
                            38.75603
                        ],
                        [
                            -121.331834,
                            38.757151
                        ],
                        [
                            -121.333056,
                            38.757564
                        ],
                        [
                            -121.334655,
                            38.758405
                        ],
                        [
                            -121.336496,
                            38.759309
                        ],
                        [
                            -121.338239,
                            38.759736
                        ],
                        [
                            -121.339479,
                            38.75982
                        ],
                        [
                            -121.345498,
                            38.759757
                        ],
                        [
                            -121.346989,
                            38.75947
                        ],
                        [
                            -121.348561,
                            38.758818
                        ],
                        [
                            -121.349971,
                            38.757774
                        ],
                        [
                            -121.350834,
                            38.756654
                        ],
                        [
                            -121.352208,
                            38.753347
                        ],
                        [
                            -121.352379,
                            38.751806
                        ],
                        [
                            -121.355431,
                            38.751757
                        ],
                        [
                            -121.358541,
                            38.751785
                        ],
                        [
                            -121.35855,
                            38.749886
                        ],
                        [
                            -121.359107,
                            38.748849
                        ],
                        [
                            -121.359871,
                            38.748247
                        ],
                        [
                            -121.363428,
                            38.746516
                        ],
                        [
                            -121.36394,
                            38.746117
                        ],
                        [
                            -121.364434,
                            38.745501
                        ],
                        [
                            -121.364784,
                            38.744359
                        ]
                    ]
                ]
            },
            "properties": {
                "name": "1",
                "TRUSTEE_AREA": "1"
            }
        },
        {
            "type": "Feature",
            "geometry": {
                "type": "Polygon",
                "coordinates": [
                    [
                        [
                            -121.469959,
                            38.800766
                        ],
                        [
                            -121.469645,
                            38.795207
                        ],
                        [
                            -121.457562,
                            38.795116
                        ],
                        [
                            -121.451292,
                            38.795326
                        ],
                        [
                            -121.400079,
                            38.795249
                        ],
                        [
                            -121.395557,
                            38.795228
                        ],
                        [
                            -121.39557,
                            38.795249
                        ],
                        [
                            -121.395597,
                            38.788499
                        ],
                        [
                            -121.395615,
                            38.781476
                        ],
                        [
                            -121.395615,
                            38.780817
                        ],
                        [
                            -121.395633,
                            38.775313
                        ],
                        [
                            -121.395668,
                            38.766852
                        ],
                        [
                            -121.385212,
                            38.766663
                        ],
                        [
                            -121.377227,
                            38.766519
                        ],
                        [
                            -121.376996,
                            38.766498
                        ],
                        [
                            -121.376996,
                            38.766352
                        ],
                        [
                            -121.376984,
                            38.766012
                        ],
                        [
                            -121.362931,
                            38.76626
                        ],
                        [
                            -121.362748,
                            38.766256
                        ],
                        [
                            -121.362614,
                            38.766252
                        ],
                        [
                            -121.359181,
                            38.766235
                        ],
                        [
                            -121.358956,
                            38.766239
                        ],
                        [
                            -121.358559,
                            38.766243
                        ],
                        [
                            -121.358559,
                            38.761522
                        ],
                        [
                            -121.35855,
                            38.755007
                        ],
                        [
                            -121.358541,
                            38.751785
                        ],
                        [
                            -121.352379,
                            38.751806
                        ],
                        [
                            -121.352118,
                            38.753613
                        ],
                        [
                            -121.350735,
                            38.756829
                        ],
                        [
                            -121.349971,
                            38.757774
                        ],
                        [
                            -121.349127,
                            38.758468
                        ],
                        [
                            -121.347959,
                            38.759119
                        ],
                        [
                            -121.346989,
                            38.75947
                        ],
                        [
                            -121.345821,
                            38.759722
                        ],
                        [
                            -121.344752,
                            38.759806
                        ],
                        [
                            -121.338239,
                            38.759736
                        ],
                        [
                            -121.336496,
                            38.759309
                        ],
                        [
                            -121.334655,
                            38.758405
                        ],
                        [
                            -121.332023,
                            38.761375
                        ],
                        [
                            -121.330765,
                            38.763462
                        ],
                        [
                            -121.330091,
                            38.765676
                        ],
                        [
                            -121.329975,
                            38.768667
                        ],
                        [
                            -121.329957,
                            38.772049
                        ],
                        [
                            -121.33019,
                            38.77338
                        ],
                        [
                            -121.330891,
                            38.774704
                        ],
                        [
                            -121.33275,
                            38.776539
                        ],
                        [
                            -121.333595,
                            38.777785
                        ],
                        [
                            -121.334008,
                            38.779179
                        ],
                        [
                            -121.334044,
                            38.780887
                        ],
                        [
                            -121.339973,
                            38.780936
                        ],
                        [
                            -121.340206,
                            38.793624
                        ],
                        [
                            -121.343701,
                            38.794198
                        ],
                        [
                            -121.344357,
                            38.794149
                        ],
                        [
                            -121.346899,
                            38.792924
                        ],
                        [
                            -121.346981,
                            38.793036
                        ],
                        [
                            -121.347026,
                            38.793085
                        ],
                        [
                            -121.347099,
                            38.793163
                        ],
                        [
                            -121.344662,
                            38.794451
                        ],
                        [
                            -121.343396,
                            38.794899
                        ],
                        [
                            -121.341572,
                            38.795235
                        ],
                        [
                            -121.340144,
                            38.795326
                        ],
                        [
                            -121.340223,
                            38.802648
                        ],
                        [
                            -121.3401,
                            38.802648
                        ],
                        [
                            -121.339964,
                            38.802642
                        ],
                        [
                            -121.340053,
                            38.809959
                        ],
                        [
                            -121.320462,
                            38.810041
                        ],
                        [
                            -121.320417,
                            38.807199
                        ],
                        [
                            -121.318827,
                            38.806065
                        ],
                        [
                            -121.312646,
                            38.807213
                        ],
                        [
                            -121.311883,
                            38.804672
                        ],
                        [
                            -121.308155,
                            38.805379
                        ],
                        [
                            -121.307867,
                            38.810139
                        ],
                        [
                            -121.302486,
                            38.810146
                        ],
                        [
                            -121.300708,
                            38.81002
                        ],
                        [
                            -121.300744,
                            38.805288
                        ],
                        [
                            -121.300447,
                            38.805393
                        ],
                        [
                            -121.300249,
                            38.824669
                        ],
                        [
                            -121.303052,
                            38.824676
                        ],
                        [
                            -121.303043,
                            38.82483
                        ],
                        [
                            -121.306663,
                            38.824844
                        ],
                        [
                            -121.307166,
                            38.824816
                        ],
                        [
                            -121.307166,
                            38.824634
                        ],
                        [
                            -121.325887,
                            38.824683
                        ],
                        [
                            -121.325887,
                            38.824599
                        ],
                        [
                            -121.330954,
                            38.82448
                        ],
                        [
                            -121.349253,
                            38.824557
                        ],
                        [
                            -121.377145,
                            38.824396
                        ],
                        [
                            -121.469824,
                            38.824285
                        ],
                        [
                            -121.469717,
                            38.823781
                        ],
                        [
                            -121.469654,
                            38.807654
                        ],
                        [
                            -121.469959,
                            38.800766
                        ]
                    ]
                ]
            },
            "properties": {
                "name": "2",
                "TRUSTEE_AREA": "2"
            }
        },
        {
            "type": "Feature",
            "geometry": {
                "type": "Polygon",
                "coordinates": [
                    [
                        [
                            -121.347106,
                            38.793162
                        ],
                        [
                            -121.346899,
                            38.792924
                        ],
                        [
                            -121.344357,
                            38.794149
                        ],
                        [
                            -121.343701,
                            38.794198
                        ],
                        [
                            -121.340206,
                            38.793624
                        ],
                        [
                            -121.339973,
                            38.780936
                        ],
                        [
                            -121.334044,
                            38.780887
                        ],
                        [
                            -121.334034,
                            38.781042
                        ],
                        [
                            -121.334008,
                            38.779179
                        ],
                        [
                            -121.333595,
                            38.777785
                        ],
                        [
                            -121.33275,
                            38.776539
                        ],
                        [
                            -121.330891,
                            38.774704
                        ],
                        [
                            -121.330172,
                            38.773317
                        ],
                        [
                            -121.329957,
                            38.772049
                        ],
                        [
                            -121.329975,
                            38.768667
                        ],
                        [
                            -121.330002,
                            38.766439
                        ],
                        [
                            -121.330163,
                            38.765298
                        ],
                        [
                            -121.330478,
                            38.764177
                        ],
                        [
                            -121.331125,
                            38.762734
                        ],
                        [
                            -121.33178,
                            38.761704
                        ],
                        [
                            -121.334655,
                            38.758405
                        ],
                        [
                            -121.333388,
                            38.757711
                        ],
                        [
                            -121.332185,
                            38.757249
                        ],
                        [
                            -121.327136,
                            38.75624
                        ],
                        [
                            -121.325034,
                            38.755939
                        ],
                        [
                            -121.323282,
                            38.756051
                        ],
                        [
                            -121.320722,
                            38.756731
                        ],
                        [
                            -121.318818,
                            38.757515
                        ],
                        [
                            -121.316895,
                            38.758475
                        ],
                        [
                            -121.315665,
                            38.758895
                        ],
                        [
                            -121.314039,
                            38.759154
                        ],
                        [
                            -121.309942,
                            38.759175
                        ],
                        [
                            -121.309987,
                            38.755337
                        ],
                        [
                            -121.309403,
                            38.752983
                        ],
                        [
                            -121.309367,
                            38.751834
                        ],
                        [
                            -121.309331,
                            38.746138
                        ],
                        [
                            -121.309116,
                            38.743819
                        ],
                        [
                            -121.309035,
                            38.741675
                        ],
                        [
                            -121.308361,
                            38.74
                        ],
                        [
                            -121.307104,
                            38.738592
                        ],
                        [
                            -121.305145,
                            38.737366
                        ],
                        [
                            -121.303259,
                            38.736161
                        ],
                        [
                            -121.302302,
                            38.735055
                        ],
                        [
                            -121.301798,
                            38.733824
                        ],
                        [
                            -121.299684,
                            38.733532
                        ],
                        [
                            -121.299319,
                            38.737139
                        ],
                        [
                            -121.298568,
                            38.737816
                        ],
                        [
                            -121.287582,
                            38.746067
                        ],
                        [
                            -121.284374,
                            38.748695
                        ],
                        [
                            -121.283805,
                            38.749163
                        ],
                        [
                            -121.282947,
                            38.749799
                        ],
                        [
                            -121.281767,
                            38.750695
                        ],
                        [
                            -121.281542,
                            38.751498
                        ],
                        [
                            -121.280308,
                            38.752033
                        ],
                        [
                            -121.280147,
                            38.752904
                        ],
                        [
                            -121.282507,
                            38.752284
                        ],
                        [
                            -121.283137,
                            38.752843
                        ],
                        [
                            -121.284942,
                            38.754167
                        ],
                        [
                            -121.289622,
                            38.758685
                        ],
                        [
                            -121.296746,
                            38.765557
                        ],
                        [
                            -121.297995,
                            38.76646
                        ],
                        [
                            -121.30192,
                            38.768723
                        ],
                        [
                            -121.302387,
                            38.770607
                        ],
                        [
                            -121.303762,
                            38.773779
                        ],
                        [
                            -121.303776,
                            38.773889
                        ],
                        [
                            -121.303438,
                            38.773863
                        ],
                        [
                            -121.302271,
                            38.774101
                        ],
                        [
                            -121.299522,
                            38.775089
                        ],
                        [
                            -121.298129,
                            38.775439
                        ],
                        [
                            -121.293261,
                            38.77567
                        ],
                        [
                            -121.291958,
                            38.775901
                        ],
                        [
                            -121.290934,
                            38.776237
                        ],
                        [
                            -121.289407,
                            38.777071
                        ],
                        [
                            -121.288428,
                            38.777953
                        ],
                        [
                            -121.287655,
                            38.77906
                        ],
                        [
                            -121.287197,
                            38.780446
                        ],
                        [
                            -121.287053,
                            38.781973
                        ],
                        [
                            -121.286802,
                            38.782855
                        ],
                        [
                            -121.284978,
                            38.785551
                        ],
                        [
                            -121.281178,
                            38.790124
                        ],
                        [
                            -121.277288,
                            38.793981
                        ],
                        [
                            -121.276821,
                            38.79471
                        ],
                        [
                            -121.276498,
                            38.795662
                        ],
                        [
                            -121.276651,
                            38.79576
                        ],
                        [
                            -121.278807,
                            38.795781
                        ],
                        [
                            -121.284098,
                            38.79576
                        ],
                        [
                            -121.284098,
                            38.795634
                        ],
                        [
                            -121.291536,
                            38.795739
                        ],
                        [
                            -121.291572,
                            38.795914
                        ],
                        [
                            -121.293431,
                            38.795893
                        ],
                        [
                            -121.294985,
                            38.796047
                        ],
                        [
                            -121.299037,
                            38.795312
                        ],
                        [
                            -121.300573,
                            38.795249
                        ],
                        [
                            -121.300519,
                            38.797314
                        ],
                        [
                            -121.300034,
                            38.799785
                        ],
                        [
                            -121.300411,
                            38.802978
                        ],
                        [
                            -121.300447,
                            38.805393
                        ],
                        [
                            -121.300744,
                            38.805288
                        ],
                        [
                            -121.300708,
                            38.81002
                        ],
                        [
                            -121.302486,
                            38.810146
                        ],
                        [
                            -121.307867,
                            38.810139
                        ],
                        [
                            -121.308155,
                            38.805379
                        ],
                        [
                            -121.311883,
                            38.804672
                        ],
                        [
                            -121.312646,
                            38.807213
                        ],
                        [
                            -121.318796,
                            38.806071
                        ],
                        [
                            -121.320417,
                            38.807199
                        ],
                        [
                            -121.320462,
                            38.810041
                        ],
                        [
                            -121.330559,
                            38.810034
                        ],
                        [
                            -121.340054,
                            38.810013
                        ],
                        [
                            -121.339964,
                            38.802642
                        ],
                        [
                            -121.340215,
                            38.802642
                        ],
                        [
                            -121.340144,
                            38.795326
                        ],
                        [
                            -121.340175,
                            38.795336
                        ],
                        [
                            -121.341284,
                            38.79527
                        ],
                        [
                            -121.34291,
                            38.795018
                        ],
                        [
                            -121.343988,
                            38.794717
                        ],
                        [
                            -121.347106,
                            38.793162
                        ]
                    ]
                ]
            },
            "properties": {
                "name": "3",
                "TRUSTEE_AREA": "3"
            }
        },
        {
            "type": "Feature",
            "geometry": {
                "type": "Polygon",
                "coordinates": [
                    [
                        [
                            -121.2537,
                            38.765562
                        ],
                        [
                            -121.254086,
                            38.764608
                        ],
                        [
                            -121.253486,
                            38.763387
                        ],
                        [
                            -121.253207,
                            38.76183
                        ],
                        [
                            -121.251576,
                            38.76178
                        ],
                        [
                            -121.252241,
                            38.758969
                        ],
                        [
                            -121.254923,
                            38.75579
                        ],
                        [
                            -121.251576,
                            38.751925
                        ],
                        [
                            -121.252576,
                            38.750636
                        ],
                        [
                            -121.252906,
                            38.75
                        ],
                        [
                            -121.25325,
                            38.749197
                        ],
                        [
                            -121.253239,
                            38.745967
                        ],
                        [
                            -121.253061,
                            38.744262
                        ],
                        [
                            -121.253142,
                            38.743252
                        ],
                        [
                            -121.253555,
                            38.741913
                        ],
                        [
                            -121.253573,
                            38.740113
                        ],
                        [
                            -121.253762,
                            38.739076
                        ],
                        [
                            -121.253762,
                            38.733274
                        ],
                        [
                            -121.25386,
                            38.73197
                        ],
                        [
                            -121.254202,
                            38.731669
                        ],
                        [
                            -121.255109,
                            38.731354
                        ],
                        [
                            -121.25572,
                            38.730737
                        ],
                        [
                            -121.255873,
                            38.730393
                        ],
                        [
                            -121.255882,
                            38.729567
                        ],
                        [
                            -121.255181,
                            38.729461
                        ],
                        [
                            -121.252118,
                            38.727906
                        ],
                        [
                            -121.250483,
                            38.726974
                        ],
                        [
                            -121.248911,
                            38.725852
                        ],
                        [
                            -121.247482,
                            38.7245
                        ],
                        [
                            -121.246027,
                            38.722839
                        ],
                        [
                            -121.244572,
                            38.720757
                        ],
                        [
                            -121.243018,
                            38.719012
                        ],
                        [
                            -121.242811,
                            38.718248
                        ],
                        [
                            -121.236083,
                            38.717673
                        ],
                        [
                            -121.234071,
                            38.71761
                        ],
                        [
                            -121.225869,
                            38.716804
                        ],
                        [
                            -121.222339,
                            38.716573
                        ],
                        [
                            -121.216499,
                            38.716187
                        ],
                        [
                            -121.193817,
                            38.714694
                        ],
                        [
                            -121.18858,
                            38.714316
                        ],
                        [
                            -121.182929,
                            38.713846
                        ],
                        [
                            -121.18292,
                            38.713937
                        ],
                        [
                            -121.181672,
                            38.713874
                        ],
                        [
                            -121.170021,
                            38.713075
                        ],
                        [
                            -121.170703,
                            38.72007
                        ],
                        [
                            -121.17003,
                            38.720344
                        ],
                        [
                            -121.169877,
                            38.720554
                        ],
                        [
                            -121.169976,
                            38.721696
                        ],
                        [
                            -121.170632,
                            38.72225
                        ],
                        [
                            -121.171413,
                            38.724458
                        ],
                        [
                            -121.171458,
                            38.724815
                        ],
                        [
                            -121.171251,
                            38.72532
                        ],
                        [
                            -121.17162,
                            38.725628
                        ],
                        [
                            -121.171961,
                            38.726925
                        ],
                        [
                            -121.169598,
                            38.730954
                        ],
                        [
                            -121.168682,
                            38.730975
                        ],
                        [
                            -121.167137,
                            38.731417
                        ],
                        [
                            -121.166104,
                            38.732068
                        ],
                        [
                            -121.165897,
                            38.732503
                        ],
                        [
                            -121.165484,
                            38.732839
                        ],
                        [
                            -121.164757,
                            38.733161
                        ],
                        [
                            -121.164514,
                            38.733161
                        ],
                        [
                            -121.163741,
                            38.733631
                        ],
                        [
                            -121.163391,
                            38.733659
                        ],
                        [
                            -121.162259,
                            38.734114
                        ],
                        [
                            -121.162196,
                            38.734269
                        ],
                        [
                            -121.162538,
                            38.734577
                        ],
                        [
                            -121.162538,
                            38.734857
                        ],
                        [
                            -121.162331,
                            38.735074
                        ],
                        [
                            -121.161837,
                            38.735117
                        ],
                        [
                            -121.161594,
                            38.735495
                        ],
                        [
                            -121.161154,
                            38.735285
                        ],
                        [
                            -121.160714,
                            38.735306
                        ],
                        [
                            -121.1604,
                            38.735747
                        ],
                        [
                            -121.159699,
                            38.735775
                        ],
                        [
                            -121.158774,
                            38.736098
                        ],
                        [
                            -121.158432,
                            38.736504
                        ],
                        [
                            -121.158046,
                            38.736455
                        ],
                        [
                            -121.157732,
                            38.736707
                        ],
                        [
                            -121.157049,
                            38.736868
                        ],
                        [
                            -121.156267,
                            38.737436
                        ],
                        [
                            -121.155495,
                            38.737744
                        ],
                        [
                            -121.155127,
                            38.73773
                        ],
                        [
                            -121.154875,
                            38.738074
                        ],
                        [
                            -121.154471,
                            38.738102
                        ],
                        [
                            -121.153204,
                            38.738578
                        ],
                        [
                            -121.152899,
                            38.738935
                        ],
                        [
                            -121.15253,
                            38.738935
                        ],
                        [
                            -121.152045,
                            38.739923
                        ],
                        [
                            -121.152171,
                            38.740211
                        ],
                        [
                            -121.152063,
                            38.740421
                        ],
                        [
                            -121.151767,
                            38.740253
                        ],
                        [
                            -121.151551,
                            38.740309
                        ],
                        [
                            -121.150931,
                            38.740127
                        ],
                        [
                            -121.151156,
                            38.739489
                        ],
                        [
                            -121.150896,
                            38.739244
                        ],
                        [
                            -121.150734,
                            38.73883
                        ],
                        [
                            -121.150051,
                            38.738851
                        ],
                        [
                            -121.149189,
                            38.739258
                        ],
                        [
                            -121.149117,
                            38.739468
                        ],
                        [
                            -121.149422,
                            38.739853
                        ],
                        [
                            -121.149314,
                            38.740141
                        ],
                        [
                            -121.148793,
                            38.739923
                        ],
                        [
                            -121.148389,
                            38.740106
                        ],
                        [
                            -121.14803,
                            38.739391
                        ],
                        [
                            -121.147644,
                            38.739517
                        ],
                        [
                            -121.147715,
                            38.740014
                        ],
                        [
                            -121.147401,
                            38.74026
                        ],
                        [
                            -121.147141,
                            38.740028
                        ],
                        [
                            -121.146539,
                            38.740155
                        ],
                        [
                            -121.146611,
                            38.739783
                        ],
                        [
                            -121.146305,
                            38.739671
                        ],
                        [
                            -121.146072,
                            38.739916
                        ],
                        [
                            -121.145784,
                            38.739979
                        ],
                        [
                            -121.14538,
                            38.740442
                        ],
                        [
                            -121.145272,
                            38.740666
                        ],
                        [
                            -121.145461,
                            38.741086
                        ],
                        [
                            -121.145236,
                            38.741283
                        ],
                        [
                            -121.145182,
                            38.741836
                        ],
                        [
                            -121.144814,
                            38.74185
                        ],
                        [
                            -121.144248,
                            38.742509
                        ],
                        [
                            -121.14476,
                            38.742712
                        ],
                        [
                            -121.145146,
                            38.742467
                        ],
                        [
                            -121.145712,
                            38.74253
                        ],
                        [
                            -121.14591,
                            38.742985
                        ],
                        [
                            -121.146332,
                            38.742845
                        ],
                        [
                            -121.146718,
                            38.74316
                        ],
                        [
                            -121.147212,
                            38.743245
                        ],
                        [
                            -121.14723,
                            38.743427
                        ],
                        [
                            -121.147284,
                            38.74398
                        ],
                        [
                            -121.148461,
                            38.74398
                        ],
                        [
                            -121.148713,
                            38.744169
                        ],
                        [
                            -121.149063,
                            38.745269
                        ],
                        [
                            -121.148919,
                            38.746643
                        ],
                        [
                            -121.148192,
                            38.747497
                        ],
                        [
                            -121.147751,
                            38.747715
                        ],
                        [
                            -121.145946,
                            38.748177
                        ],
                        [
                            -121.145865,
                            38.750047
                        ],
                        [
                            -121.146233,
                            38.75023
                        ],
                        [
                            -121.146305,
                            38.750503
                        ],
                        [
                            -121.146099,
                            38.750846
                        ],
                        [
                            -121.146485,
                            38.751112
                        ],
                        [
                            -121.146512,
                            38.751344
                        ],
                        [
                            -121.147033,
                            38.751659
                        ],
                        [
                            -121.146952,
                            38.751876
                        ],
                        [
                            -121.146296,
                            38.751897
                        ],
                        [
                            -121.14609,
                            38.752044
                        ],
                        [
                            -121.146054,
                            38.752457
                        ],
                        [
                            -121.146188,
                            38.752556
                        ],
                        [
                            -121.146754,
                            38.752535
                        ],
                        [
                            -121.147087,
                            38.753193
                        ],
                        [
                            -121.147491,
                            38.753564
                        ],
                        [
                            -121.146655,
                            38.753487
                        ],
                        [
                            -121.146108,
                            38.753186
                        ],
                        [
                            -121.145793,
                            38.753431
                        ],
                        [
                            -121.147185,
                            38.754776
                        ],
                        [
                            -121.14785,
                            38.754909
                        ],
                        [
                            -121.147419,
                            38.755449
                        ],
                        [
                            -121.147239,
                            38.756465
                        ],
                        [
                            -121.147509,
                            38.756752
                        ],
                        [
                            -121.146943,
                            38.757137
                        ],
                        [
                            -121.146584,
                            38.757214
                        ],
                        [
                            -121.146476,
                            38.757375
                        ],
                        [
                            -121.146629,
                            38.757676
                        ],
                        [
                            -121.147338,
                            38.757648
                        ],
                        [
                            -121.14741,
                            38.757992
                        ],
                        [
                            -121.147141,
                            38.758167
                        ],
                        [
                            -121.146251,
                            38.758335
                        ],
                        [
                            -121.146332,
                            38.758454
                        ],
                        [
                            -121.14715,
                            38.758622
                        ],
                        [
                            -121.146835,
                            38.759147
                        ],
                        [
                            -121.146494,
                            38.759253
                        ],
                        [
                            -121.147168,
                            38.759708
                        ],
                        [
                            -121.147105,
                            38.759925
                        ],
                        [
                            -121.155145,
                            38.759798
                        ],
                        [
                            -121.154875,
                            38.752563
                        ],
                        [
                            -121.161136,
                            38.752499
                        ],
                        [
                            -121.161163,
                            38.750349
                        ],
                        [
                            -121.165493,
                            38.750293
                        ],
                        [
                            -121.167961,
                            38.753372
                        ],
                        [
                            -121.168057,
                            38.753481
                        ],
                        [
                            -121.167494,
                            38.753836
                        ],
                        [
                            -121.166805,
                            38.754377
                        ],
                        [
                            -121.164451,
                            38.756444
                        ],
                        [
                            -121.164047,
                            38.75699
                        ],
                        [
                            -121.163993,
                            38.75975
                        ],
                        [
                            -121.182543,
                            38.759596
                        ],
                        [
                            -121.182696,
                            38.762061
                        ],
                        [
                            -121.186127,
                            38.762033
                        ],
                        [
                            -121.186136,
                            38.764037
                        ],
                        [
                            -121.185094,
                            38.764037
                        ],
                        [
                            -121.185085,
                            38.764485
                        ],
                        [
                            -121.191927,
                            38.764408
                        ],
                        [
                            -121.191922,
                            38.766831
                        ],
                        [
                            -121.217479,
                            38.766719
                        ],
                        [
                            -121.217613,
                            38.766838
                        ],
                        [
                            -121.218233,
                            38.766831
                        ],
                        [
                            -121.218341,
                            38.766712
                        ],
                        [
                            -121.219329,
                            38.766705
                        ],
                        [
                            -121.219689,
                            38.766418
                        ],
                        [
                            -121.219671,
                            38.75947
                        ],
                        [
                            -121.224294,
                            38.759567
                        ],
                        [
                            -121.224306,
                            38.759785
                        ],
                        [
                            -121.222985,
                            38.763042
                        ],
                        [
                            -121.222599,
                            38.764828
                        ],
                        [
                            -121.222231,
                            38.766951
                        ],
                        [
                            -121.221566,
                            38.768078
                        ],
                        [
                            -121.220766,
                            38.768772
                        ],
                        [
                            -121.217856,
                            38.770389
                        ],
                        [
                            -121.243722,
                            38.770079
                        ],
                        [
                            -121.24516,
                            38.769175
                        ],
                        [
                            -121.24692,
                            38.768824
                        ],
                        [
                            -121.249537,
                            38.768222
                        ],
                        [
                            -121.251297,
                            38.767586
                        ],
                        [
                            -121.2537,
                            38.765562
                        ]
                    ]
                ]
            },
            "properties": {
                "name": "4",
                "TRUSTEE_AREA": "4"
            }
        },
        {
            "type": "Feature",
            "geometry": {
                "type": "Polygon",
                "coordinates": [
                    [
                        [
                            -121.308846,
                            38.722797
                        ],
                        [
                            -121.299477,
                            38.722208
                        ],
                        [
                            -121.299073,
                            38.722054
                        ],
                        [
                            -121.296414,
                            38.722054
                        ],
                        [
                            -121.293063,
                            38.721752
                        ],
                        [
                            -121.290413,
                            38.721507
                        ],
                        [
                            -121.27374,
                            38.720302
                        ],
                        [
                            -121.271908,
                            38.720217
                        ],
                        [
                            -121.25757,
                            38.719306
                        ],
                        [
                            -121.254256,
                            38.718956
                        ],
                        [
                            -121.242802,
                            38.718297
                        ],
                        [
                            -121.243018,
                            38.719012
                        ],
                        [
                            -121.244572,
                            38.720757
                        ],
                        [
                            -121.246027,
                            38.722839
                        ],
                        [
                            -121.247482,
                            38.7245
                        ],
                        [
                            -121.248911,
                            38.725852
                        ],
                        [
                            -121.251165,
                            38.727394
                        ],
                        [
                            -121.255213,
                            38.729466
                        ],
                        [
                            -121.255613,
                            38.729525
                        ],
                        [
                            -121.255876,
                            38.729556
                        ],
                        [
                            -121.255886,
                            38.729715
                        ],
                        [
                            -121.255873,
                            38.730393
                        ],
                        [
                            -121.25572,
                            38.730737
                        ],
                        [
                            -121.255109,
                            38.731354
                        ],
                        [
                            -121.254103,
                            38.731732
                        ],
                        [
                            -121.253771,
                            38.73218
                        ],
                        [
                            -121.253762,
                            38.739076
                        ],
                        [
                            -121.253573,
                            38.740113
                        ],
                        [
                            -121.253555,
                            38.741913
                        ],
                        [
                            -121.253142,
                            38.743252
                        ],
                        [
                            -121.25311,
                            38.744327
                        ],
                        [
                            -121.253153,
                            38.744754
                        ],
                        [
                            -121.253282,
                            38.745298
                        ],
                        [
                            -121.253271,
                            38.747256
                        ],
                        [
                            -121.253228,
                            38.749381
                        ],
                        [
                            -121.252576,
                            38.750636
                        ],
                        [
                            -121.251683,
                            38.75169
                        ],
                        [
                            -121.255052,
                            38.755656
                        ],
                        [
                            -121.252584,
                            38.758601
                        ],
                        [
                            -121.251619,
                            38.76173
                        ],
                        [
                            -121.253207,
                            38.761797
                        ],
                        [
                            -121.253593,
                            38.763387
                        ],
                        [
                            -121.254022,
                            38.764508
                        ],
                        [
                            -121.253958,
                            38.765294
                        ],
                        [
                            -121.251404,
                            38.767586
                        ],
                        [
                            -121.249301,
                            38.768322
                        ],
                        [
                            -121.245203,
                            38.769226
                        ],
                        [
                            -121.243894,
                            38.770045
                        ],
                        [
                            -121.247478,
                            38.770146
                        ],
                        [
                            -121.247402,
                            38.770831
                        ],
                        [
                            -121.247375,
                            38.773961
                        ],
                        [
                            -121.258523,
                            38.773919
                        ],
                        [
                            -121.260598,
                            38.774697
                        ],
                        [
                            -121.265745,
                            38.777253
                        ],
                        [
                            -121.265754,
                            38.777623
                        ],
                        [
                            -121.265759,
                            38.778117
                        ],
                        [
                            -121.265709,
                            38.792077
                        ],
                        [
                            -121.274926,
                            38.795704
                        ],
                        [
                            -121.276498,
                            38.795662
                        ],
                        [
                            -121.276821,
                            38.79471
                        ],
                        [
                            -121.277288,
                            38.793981
                        ],
                        [
                            -121.280693,
                            38.790677
                        ],
                        [
                            -121.284053,
                            38.786643
                        ],
                        [
                            -121.284978,
                            38.785551
                        ],
                        [
                            -121.286802,
                            38.782855
                        ],
                        [
                            -121.287035,
                            38.782071
                        ],
                        [
                            -121.287251,
                            38.780159
                        ],
                        [
                            -121.287808,
                            38.778794
                        ],
                        [
                            -121.288895,
                            38.777491
                        ],
                        [
                            -121.290619,
                            38.776377
                        ],
                        [
                            -121.291608,
                            38.775999
                        ],
                        [
                            -121.29291,
                            38.775712
                        ],
                        [
                            -121.297276,
                            38.775537
                        ],
                        [
                            -121.298489,
                            38.775376
                        ],
                        [
                            -121.302271,
                            38.774101
                        ],
                        [
                            -121.303438,
                            38.773863
                        ],
                        [
                            -121.303807,
                            38.773891
                        ],
                        [
                            -121.302504,
                            38.770929
                        ],
                        [
                            -121.30192,
                            38.768723
                        ],
                        [
                            -121.297995,
                            38.76646
                        ],
                        [
                            -121.296746,
                            38.765557
                        ],
                        [
                            -121.289622,
                            38.758685
                        ],
                        [
                            -121.284942,
                            38.754167
                        ],
                        [
                            -121.282496,
                            38.752326
                        ],
                        [
                            -121.279938,
                            38.753063
                        ],
                        [
                            -121.280217,
                            38.752012
                        ],
                        [
                            -121.281477,
                            38.751498
                        ],
                        [
                            -121.281713,
                            38.750686
                        ],
                        [
                            -121.283355,
                            38.749423
                        ],
                        [
                            -121.283998,
                            38.748963
                        ],
                        [
                            -121.287518,
                            38.746134
                        ],
                        [
                            -121.292989,
                            38.742068
                        ],
                        [
                            -121.295671,
                            38.740109
                        ],
                        [
                            -121.299298,
                            38.737164
                        ],
                        [
                            -121.299663,
                            38.733498
                        ],
                        [
                            -121.301765,
                            38.733783
                        ],
                        [
                            -121.301808,
                            38.732778
                        ],
                        [
                            -121.302136,
                            38.731865
                        ],
                        [
                            -121.304463,
                            38.728557
                        ],
                        [
                            -121.307256,
                            38.725859
                        ],
                        [
                            -121.307481,
                            38.725418
                        ],
                        [
                            -121.307741,
                            38.723974
                        ],
                        [
                            -121.308846,
                            38.722797
                        ]
                    ]
                ]
            },
            "properties": {
                "name": "5",
                "TRUSTEE_AREA": "5"
            }
        }
    ]
}