{"type":"FeatureCollection","name":"RUSD Adopted Map 117","crs":{"type":"name","properties":{"name":"urn:ogc:def:crs:OGC:1.3:CRS84"}},"features":[{"type":"Feature","properties":{"FID":0,"ID":2,"AREA":4.715104,"DISTRICT":"1","MEMBERS":1,"LOCKED":" ","NAME":" ","POPULATION":13551,"HISPANIC_O":2034,"NH_WHT":8989,"DOJ_NH_BLK":308,"DOJ_NH_IND":313,"DOJ_NH_ASN":1449,"DOJ_NH_HWN":45,"DOJ_NH_OTH":274,"DOJ_NH_OT1":139,"F18_POPULA":10392,"H18_POP":1374,"NH18_WHT":7256,"DOJ_NH18_B":213,"DOJ_NH18_I":225,"DOJ_NH18_A":1029,"DOJ_NH18_H":39,"DOJ_NH18_O":176,"DOJ_NH18_1":80,"ST1822_M1_":9433.676297,"ST1822_M11":1217.192704,"ST1822_M12":6803.952779,"ST1822_M13":254.795918,"ST1822_M14":793.170225,"ST1822_M15":63,"ST1822_M16":90.000001,"ST1822_M2_":9233.464076,"ST1822_M21":1243.382975,"ST1822_M22":6764.633564,"ST1822_M23":262.333335,"ST1822_M24":810.11424,"ST1822_M25":63,"ST1822_M26":90.000001,"ACS1822_TO":9978.529908,"ACS1822_M1":1296.131288,"ACS1822_M2":7064.960169,"ACS1822_M3":204.256485,"ACS1822_M4":621.6443,"ACS1822_M5":111.618339,"ACS1822_M6":451.153017,"ACS1822_M7":1101.049912,"ACS1822_M8":1311.702379,"ACS1822_M9":6984.375093,"ACS1822_10":211.782312,"ACS1822_11":649.169981,"ACS1822_12":112.808019,"ACS1822_13":427.792059,"ACS1822_14":1195.250012,"ACS1822_15":9725.722152,"ACS1822_16":9581.470034,"ACS1822_17":9874.555303,"ACS1822_18":1182.021977,"ACS1822_19":7100.133157,"ACS1822_20":212,"ACS1822_21":225,"ACS1822_22":782.314848,"ACS1822_23":144.252146,"ACS1822_24":80,"SWDB_CVAP1":8472,"SWDB_CVAP2":8470,"SWDB_CVAP3":742,"SWDB_CVAP4":6878,"SWDB_CVAP5":267,"SWDB_CVAP6":134,"SWDB_CVAP7":408,"SWDB_CVAP8":41,"G20_REG_TO":8705,"G20_REG_SS":811,"G20_REG_AS":310,"G20_REG_FI":113,"G20_REG_LA":856,"G20_REG_WH":7180,"G20_REG_BL":209,"G20_VOTE_T":7523,"G20_VOTE_S":663,"G20_VOTE_A":268,"G20_VOTE_F":99,"G20_VOTE_L":696,"G20_VOTE_W":6252,"G20_VOTE_B":167,"G22_REG_TO":8938.999998,"G22_REG_LA":984.644805,"G22_REG_SS":884.534913,"G22_REG_AS":377.019354,"G22_REG_FI":141.908978,"G22_REG_WH":7144.703083,"G22_REG_BL":259.963613,"G22_VOT_TO":5603.995115,"G22_VOT_SS":459.190093,"G22_VOT_LA":511.160309,"G22_VOT_AS":190.431639,"G22_VOT_FI":80.679637,"G22_VOT_WH":4631.819142,"G22_VOT_BL":171.865166,"TRACT_ACSP":13861.329927,"TRACT_BORN":12421.188072,"TRACT_IMMI":1440.141721,"TRACT_CIT":860.783478,"TRACT_NONC":579.358233,"BG_ACSPOP":13344.766228,"BG_AGE0_19":3731.495068,"BG_AGE20_6":6711.41658,"BG_AGE60PL":2901.854478,"BG_POP5PLU":12624.644003,"BG_ENGLISH":10679.926118,"BG_SPANISH":675.292882,"BG_ASIAN_L":344.589817,"BG_OTHER_L":924.835144,"BG_ENG_LVW":455.433906,"BG_POP25PL":8580.632135,"BG_NOHSDEG":459.708196,"BG_HS_GRAD":4654.834505,"BG_BACHELO":2222.876774,"BG_GRADDEG":1243.212637,"BG_POP16PL":10383.5014,"BG_EMPLOYE":5946.011317,"BG_HHS":4799.670808,"BG_FAMS":3174.641784,"BG_CHILD":1762.789476,"BG_HHINC0_":559.84071,"BG_HHINC25":683.795357,"BG_HHINC50":571.556757,"BG_HHINC75":2017.622023,"BG_HHINC20":966.855967,"BG_HOUSING":5060.670832,"BG_VACANT":261.000004,"BG_OCCUPIE":4799.670808,"BG_RENTED":1456.945129,"BG_OWNED":3342.725681,"BG_SINGLEF":4170.083556,"BG_MULTIFA":890.587233},"geometry":{"type":"Polygon","coordinates":[[[-121.24739885008135,38.77083002326365],[-121.24739795176608,38.77111507641302],[-121.24737190062284,38.77396204352324],[-121.25010188077127,38.773942433806305],[-121.25049803781155,38.77394313415343],[-121.2503767652482,38.774083203440334],[-121.25027435730583,38.77419806005031],[-121.24969135068642,38.77485077824865],[-121.24933741446448,38.775247868908366],[-121.24848850652101,38.77623533345132],[-121.24776626103257,38.77711983795546],[-121.24769798907097,38.77721087896823],[-121.24708713467776,38.77804144776449],[-121.24694520086287,38.77824033464111],[-121.2465202977335,38.77883699194316],[-121.24637926223389,38.77903727719543],[-121.24589417198044,38.779715861858236],[-121.24443979953548,38.781752277374686],[-121.24395650591262,38.78243223672999],[-121.24446405404814,38.78273124872965],[-121.24458891987264,38.78279917399741],[-121.24476139640717,38.78287130075731],[-121.24488356728581,38.78291681760708],[-121.24509017980117,38.78301625431626],[-121.24526355465102,38.783110088830156],[-121.24633973636138,38.783736115934396],[-121.24716259316163,38.78422208844284],[-121.24752102096002,38.78443496296528],[-121.24794772071996,38.784698954500115],[-121.24777614250068,38.78487681561968],[-121.24775098967274,38.78490202424641],[-121.24716349147691,38.78551333071565],[-121.24696855706027,38.785717098374036],[-121.24632536331684,38.78630318973257],[-121.24555730374891,38.78679124540719],[-121.24508478990947,38.78712595023698],[-121.24501651794786,38.7871777663254],[-121.24483685489105,38.787310107245176],[-121.24473893852507,38.787382929657085],[-121.24470120928315,38.78741093825724],[-121.24432122191796,38.78773443679163],[-121.24425474658693,38.78779115391592],[-121.24414874538343,38.787875179202246],[-121.24399154020868,38.78781846214483],[-121.24386487775364,38.78776314546513],[-121.243024952963,38.78739833438853],[-121.24274557690963,38.78727719709231],[-121.24266023695763,38.78723098280943],[-121.24244823455057,38.787137853936294],[-121.24175383683594,38.786833958872506],[-121.24154632600532,38.78674713147351],[-121.24151398665508,38.78673382726593],[-121.24131815392316,38.786632995296216],[-121.24125617016855,38.78659728393942],[-121.24121484766549,38.78657137568896],[-121.24112052456066,38.78651115647589],[-121.24109357510213,38.78649295065726],[-121.24105404922963,38.78646634214476],[-121.24070190963825,38.7869410925336],[-121.2396463891794,38.78836532473219],[-121.2392951479033,38.78884146287729],[-121.2390975185408,38.78912084245557],[-121.23850283382274,38.78996387594986],[-121.23830610277551,38.79024535169055],[-121.23813542287151,38.79047291211121],[-121.23762158652902,38.79115908990503],[-121.23745090662503,38.79138804776043],[-121.237220039597,38.791717829800994],[-121.23652833682823,38.792709267257],[-121.2362983681155,38.79304044350417],[-121.23624357088318,38.793108358950384],[-121.2360782808709,38.793314205371374],[-121.23602438195385,38.79338282071292],[-121.235771955359,38.79366918402736],[-121.23552671528643,38.793949244835815],[-121.23515930433523,38.794472955594706],[-121.23508743911249,38.79458497878684],[-121.23488352154301,38.794908444766016],[-121.23487004681375,38.794925248153376],[-121.23483411420237,38.794976358432315],[-121.23482243610368,38.79499386194406],[-121.2346975702792,38.79515839474446],[-121.23432297280571,38.79565199086673],[-121.23419900529652,38.795817222280164],[-121.23363486329806,38.79659226451789],[-121.23224606786883,38.79850637969543],[-121.23195142045563,38.79892434167946],[-121.2313998548712,38.79970915144529],[-121.23136212562925,38.79976795932229],[-121.23124983621874,38.79994508275387],[-121.23121300529209,38.8000052906185],[-121.23107017316191,38.8001964152471],[-121.23064347340197,38.80076978605721],[-121.23050153958707,38.8009623087989],[-121.23011885727603,38.80156087618235],[-121.22982510817813,38.80202502497295],[-121.22930408531336,38.80301631905339],[-121.22913340540934,38.80344685561904],[-121.22887199566168,38.80410910678635],[-121.22864831515594,38.80483015549762],[-121.22850997460218,38.805275381931715],[-121.22840936329037,38.80560019946165],[-121.22814436028153,38.806456338571124],[-121.22791708651465,38.80719136394043],[-121.22743648783765,38.808778292852885],[-121.22708344993099,38.809947291539714],[-121.22696846557461,38.810337886825245],[-121.22067217374824,38.81028328761301],[-121.2202607453481,38.81027978766206],[-121.22027871165379,38.80955179413115],[-121.22029577964419,38.808902193622565],[-121.22030476279703,38.80800128311317],[-121.22032003415687,38.80755537369655],[-121.22029038975249,38.80747627173466],[-121.22015294751401,38.80747627173466],[-121.22009545533582,38.807467871521155],[-121.22004335304933,38.807446170965],[-121.21998855581701,38.80739226955503],[-121.21997238614189,38.80734746835209],[-121.2199562164668,38.80682805234853],[-121.21997687771831,38.806764350125135],[-121.2200343698965,38.80671604840129],[-121.22001101369912,38.80661804480301],[-121.22001101369912,38.80640033632734],[-121.22000921706857,38.80627993135411],[-121.22000382717684,38.806200827976085],[-121.22029128806777,38.8062043281274],[-121.2202849998608,38.80605732162355],[-121.22028230491493,38.80575700739438],[-121.22028410154552,38.805702404671266],[-121.22025625377168,38.80564920197769],[-121.2202499655647,38.80507587043028],[-121.2202679318704,38.80502196722699],[-121.22033800046256,38.805026867519906],[-121.22047903596216,38.80502826760354],[-121.22055090118488,38.805005866262285],[-121.22031374594987,38.804524235722006],[-121.219587008885,38.80495616326124],[-121.21944327843956,38.80504086835487],[-121.2193229041915,38.8051038720782],[-121.2193282940832,38.804984864998474],[-121.21932020924564,38.80490296001045],[-121.2193058362011,38.80483505580371],[-121.21929505641768,38.80477905228554],[-121.21924475076177,38.80463694316058],[-121.21918456363774,38.80451933539454],[-121.21916839396262,38.80448923337561],[-121.21913605461239,38.80444443034713],[-121.21903813824643,38.80430512075045],[-121.21897076460012,38.80423721597393],[-121.21895818818614,38.80422391503073],[-121.21890428926909,38.804179811885575],[-121.21888901790925,38.804167911032195],[-121.21884410214504,38.80413220846015],[-121.2188297291005,38.80412030759883],[-121.21875876219305,38.80416231062991],[-121.21854586147073,38.80428831957467],[-121.21847489456329,38.80433032250672],[-121.2182251629143,38.80447803262112],[-121.21802933018238,38.80459634050139],[-121.21669712861599,38.80540488909854],[-121.21625425918091,38.80567510329401],[-121.21597937470399,38.80584241156971],[-121.21588774654502,38.80594881662854],[-121.21509273751857,38.806436037762836],[-121.21152642584062,38.80862429159588],[-121.21139078023272,38.80870689231151],[-121.2107125521932,38.80912339446086],[-121.21033615808916,38.80935089460655],[-121.21024991982189,38.80940199453937],[-121.20999300165062,38.80955879410436],[-121.20990856001391,38.80961199387837],[-121.20966152331079,38.80976109303329],[-121.20927794268445,38.809994191086766],[-121.20892220983195,38.81021118858916],[-121.2086769697594,38.81036238645814],[-121.20864013883272,38.81038408612598],[-121.20810474292341,38.81070888036415],[-121.20724325856592,38.81123526788112],[-121.20639884219884,38.811765151386375],[-121.20635572306522,38.811793150405165],[-121.20582751367816,38.8121123384413],[-121.20572690236635,38.81191984582753],[-121.2056667152423,38.81177005121546],[-121.20557418876805,38.81153625899518],[-121.20556430729991,38.81150545996284],[-121.2055023235453,38.81129896610668],[-121.2054583060964,38.811102971384436],[-121.20542417011559,38.810878276771476],[-121.20541518696275,38.81075507942429],[-121.20541428864748,38.81067388105623],[-121.20541339033217,38.81050028423477],[-121.20541698359331,38.810297287415004],[-121.20542686506143,38.810159389245435],[-121.205441238106,38.80953709418516],[-121.20547088251035,38.80829808783391],[-121.20540979707106,38.808167185904296],[-121.20542327180031,38.807271166238436],[-121.20542686506143,38.8070233588103],[-121.20542776337673,38.80696525694392],[-121.20543225495315,38.80661034451459],[-121.20543315326843,38.80651094071644],[-121.20543405158371,38.80627713123604],[-121.205434949899,38.80600411919503],[-121.20544033979071,38.80541328955526],[-121.20550412017589,38.80532718482669],[-121.20548795050077,38.80512207314347],[-121.20548256060906,38.80504716872971],[-121.20546459430338,38.804822455015966],[-121.20545022125884,38.80462924265804],[-121.20544213642128,38.80454033679557],[-121.20540620380991,38.804024400585],[-121.20541249201689,38.80383888665174],[-121.20542686506143,38.8032823419539],[-121.20543225495315,38.8031549311097],[-121.20543405158371,38.803098226210174],[-121.20542327180031,38.802869305971726],[-121.20542327180031,38.8028027999542],[-121.20542596674615,38.802683789031065],[-121.20542686506143,38.80242826490689],[-121.20543674652957,38.80138585699971],[-121.205441238106,38.801009914342096],[-121.20544393305184,38.80068787622393],[-121.20545650946582,38.80053735790877],[-121.20546010272696,38.800402941284155],[-121.20546010272696,38.800367936913226],[-121.20547717071736,38.79968604833747],[-121.2054798656632,38.79957823373529],[-121.20548256060906,38.79952432637303],[-121.20548345892433,38.7995019233014],[-121.2054861538702,38.79941021065347],[-121.20548974713134,38.79929609475116],[-121.20549244207719,38.799263190131924],[-121.20550052691475,38.799160275586324],[-121.2055310696344,38.79872481239488],[-121.20555712077766,38.79837195923992],[-121.20556700224577,38.798217235380896],[-121.20562449442396,38.79741490627217],[-121.20563527420735,38.79725878009908],[-121.20565144388249,38.79701443845109],[-121.20565503714363,38.79698013253661],[-121.20568557986326,38.79653695464651],[-121.20574397035674,38.79567999621801],[-121.20576642823883,38.795283019336225],[-121.20578708949037,38.79490704448356],[-121.20579427601265,38.7943952394017],[-121.20579337769736,38.7943644329594],[-121.20576732655414,38.791455964781015],[-121.20576552992355,38.79036718412919],[-121.20577720802225,38.79025725486902],[-121.2057861911751,38.7901858357684],[-121.20585356482141,38.78968590006047],[-121.20592812498997,38.789190162031026],[-121.2059550744485,38.789085132344944],[-121.20604760092276,38.789012311671755],[-121.20605119418391,38.78899620708976],[-121.20613833076645,38.78868111671002],[-121.20617156843198,38.78856208220415],[-121.20620121283635,38.788443047499506],[-121.20633236686781,38.787994214855054],[-121.20634494328179,38.787933996843776],[-121.2062874511036,38.78778205117061],[-121.20629014604947,38.78775404271623],[-121.20629733257175,38.78765181176443],[-121.20631440056214,38.787436846202624],[-121.20631350224686,38.787316409187596],[-121.20629643425644,38.78708393716466],[-121.20625870501453,38.786854265265085],[-121.20620121283635,38.78662179173522],[-121.20593081993583,38.785705194437504],[-121.2058868024869,38.78556514797612],[-121.20568108828684,38.784904825204386],[-121.20539991560291,38.78400431154674],[-121.2052822363007,38.7836352797252],[-121.20518611656529,38.78333417075185],[-121.20506843726307,38.783032360249074],[-121.20496602932067,38.78280477607847],[-121.20484116349618,38.78255338225799],[-121.20470372125773,38.7823040883463],[-121.20465611054766,38.782222857557606],[-121.20455100765943,38.78204639035294],[-121.20423659730997,38.78151838666416],[-121.20413239273702,38.78134191771612],[-121.20354309791064,38.78041334772339],[-121.20327001006429,38.77998127144027],[-121.20309214363803,38.77969205197935],[-121.2029915323262,38.77952328172778],[-121.20290888732004,38.7793650154858],[-121.2028154625305,38.77914932464364],[-121.20274090236192,38.778928030763915],[-121.20270047817414,38.77875925870421],[-121.20267352871562,38.778598189561095],[-121.20265646072521,38.77842731581157],[-121.20265017251823,38.77819901663846],[-121.20266544387806,38.77797211734965],[-121.20270047817414,38.777745917648744],[-121.2027364107855,38.777597451820384],[-121.20277593665801,38.777474196935636],[-121.20281725916108,38.77735304277884],[-121.20283522546676,38.777301919864804],[-121.20286307324055,38.77723679061986],[-121.2029394300397,38.77708202088522],[-121.20305531271136,38.77688102982356],[-121.2031891616887,38.77668704139762],[-121.20330324772979,38.7765427752947],[-121.20334007865644,38.77650005566452],[-121.2034047573569,38.77643282471932],[-121.20345775795865,38.776376798883256],[-121.20357004736915,38.776261945781705],[-121.20362753954734,38.776224128256565],[-121.20369221824781,38.77618210876069],[-121.20380091439719,38.77607005665065],[-121.20420246132919,38.77576121211103],[-121.20428780128118,38.77569888277872],[-121.2047100094647,38.775399841291986],[-121.20559215507373,38.774789148459526],[-121.20582841199344,38.774642777496965],[-121.20595148118738,38.77457834616464],[-121.2062200774573,38.774448782983214],[-121.20645543606174,38.774354236729344],[-121.20670696434132,38.774268794821744],[-121.20694681452217,38.77420296246247],[-121.20696478082785,38.77419806005031],[-121.20722888552139,38.774142032458776],[-121.20749748179134,38.77410001173626],[-121.20762773750752,38.77408530447753],[-121.20770139936084,38.774078301019905],[-121.2087443434057,38.774018771602506],[-121.20916295832811,38.77399636051486],[-121.20923123028969,38.773964144564005],[-121.20969296434572,38.773934029640266],[-121.21011427421398,38.77390811678873],[-121.2103837687992,38.77388710636167],[-121.21052480429883,38.77387590079803],[-121.21056792343245,38.77387239905903],[-121.21086616410678,38.773830378177685],[-121.21113476037674,38.77377995308734],[-121.21142222126767,38.77370011328811],[-121.21168991922231,38.7736111688451],[-121.21200432957176,38.77349140882933],[-121.21230975676836,38.77335834190932],[-121.21277957566197,38.77310831549872],[-121.2130939860114,38.77293392681116],[-121.21365273811813,38.77262576905189],[-121.21423125316109,38.77230710451432],[-121.21459507085117,38.77210680036207],[-121.2151529246426,38.771802841238475],[-121.21568921886721,38.77151008675673],[-121.21604495171974,38.77131678409588],[-121.2166189751863,38.77100931972638],[-121.21730438974807,38.77064232179644],[-121.21777600527224,38.77039788892152],[-121.21785236207138,38.77038878395585],[-121.21795027843736,38.77038738319179],[-121.21891417073721,38.77037617707837],[-121.22039818758658,38.77036006828725],[-121.22210318999583,38.77036006828725],[-121.22316679529222,38.77036076866956],[-121.22553475438117,38.770395087393744],[-121.22730443549091,38.77042240228487],[-121.22748230191714,38.7704041923586],[-121.22760537111108,38.77039788892152],[-121.22784971286833,38.77039999006729],[-121.22862226401269,38.77039438701179],[-121.22922054199192,38.77039018471987],[-121.23005956846728,38.77039228586587],[-121.23017545113893,38.770395787775705],[-121.2312749890467,38.77043781068036],[-121.23171426522063,38.77038318089946],[-121.23216521949325,38.77032785069411],[-121.23294675379046,38.77032715031149],[-121.23873909074244,38.77033205298969],[-121.2432441418923,38.770338356432596],[-121.24365916355357,38.77032434878094],[-121.24512431578198,38.77039718853959],[-121.2454962183096,38.77036777249216],[-121.24741232481063,38.77034045758012],[-121.24740513828834,38.77040699388604],[-121.24741591807177,38.77061430660971],[-121.24739885008135,38.77083002326365]]]}},{"type":"Feature","properties":{"FID":1,"ID":3,"AREA":4.207321,"DISTRICT":"2","MEMBERS":1,"LOCKED":" ","NAME":" ","POPULATION":14367,"HISPANIC_O":2160,"NH_WHT":10107,"DOJ_NH_BLK":317,"DOJ_NH_IND":322,"DOJ_NH_ASN":1012,"DOJ_NH_HWN":84,"DOJ_NH_OTH":240,"DOJ_NH_OT1":125,"F18_POPULA":11075,"H18_POP":1451,"NH18_WHT":8117,"DOJ_NH18_B":218,"DOJ_NH18_I":249,"DOJ_NH18_A":732,"DOJ_NH18_H":65,"DOJ_NH18_O":168,"DOJ_NH18_1":75,"ST1822_M1_":10928.799895,"ST1822_M11":1116.783047,"ST1822_M12":8623.077849,"ST1822_M13":318.94635,"ST1822_M14":654.621344,"ST1822_M15":14,"ST1822_M16":68.112484,"ST1822_M2_":10771.550705,"ST1822_M21":1133.73131,"ST1822_M22":8629.008888,"ST1822_M23":300.878794,"ST1822_M24":620.86507,"ST1822_M25":14,"ST1822_M26":73.066669,"ACS1822_TO":10247.818553,"ACS1822_M1":1199.421357,"ACS1822_M2":7648.881788,"ACS1822_M3":246.334626,"ACS1822_M4":527.509145,"ACS1822_M5":47.140077,"ACS1822_M6":396.359043,"ACS1822_M7":990.907375,"ACS1822_M8":1167.88877,"ACS1822_M9":7808.622519,"ACS1822_10":228.805553,"ACS1822_11":452.330972,"ACS1822_12":44.195458,"ACS1822_13":450.551966,"ACS1822_14":862.676959,"ACS1822_15":10363.200247,"ACS1822_16":10214.841248,"ACS1822_17":10466.667651,"ACS1822_18":1349.177443,"ACS1822_19":7817.649877,"ACS1822_20":199,"ACS1822_21":152,"ACS1822_22":622.013947,"ACS1822_23":148.359004,"ACS1822_24":75,"SWDB_CVAP1":10589,"SWDB_CVAP2":10539,"SWDB_CVAP3":1067,"SWDB_CVAP4":8535,"SWDB_CVAP5":215,"SWDB_CVAP6":71,"SWDB_CVAP7":564,"SWDB_CVAP8":87,"G20_REG_TO":9810,"G20_REG_SS":894,"G20_REG_AS":258,"G20_REG_FI":97,"G20_REG_LA":948,"G20_REG_WH":8301,"G20_REG_BL":209,"G20_VOTE_T":8465,"G20_VOTE_S":739,"G20_VOTE_A":216,"G20_VOTE_F":81,"G20_VOTE_L":778,"G20_VOTE_W":7207,"G20_VOTE_B":171,"G22_REG_TO":9734.999999,"G22_REG_LA":1034.706832,"G22_REG_SS":929.50708,"G22_REG_AS":308.848223,"G22_REG_FI":119.239723,"G22_REG_WH":7974.173376,"G22_REG_BL":296.145022,"G22_VOT_TO":6332.057276,"G22_VOT_SS":497.83055,"G22_VOT_LA":554.174016,"G22_VOT_AS":158.671323,"G22_VOT_FI":67.499089,"G22_VOT_WH":5359.906497,"G22_VOT_BL":191.806351,"TRACT_ACSP":13941.376288,"TRACT_BORN":12467.180283,"TRACT_IMMI":1474.195982,"TRACT_CIT":798.663614,"TRACT_NONC":675.532376,"BG_ACSPOP":14588.242331,"BG_AGE0_19":3503.160707,"BG_AGE20_6":7446.730186,"BG_AGE60PL":3638.351499,"BG_POP5PLU":13595.568611,"BG_ENGLISH":12039.32778,"BG_SPANISH":575.244548,"BG_ASIAN_L":495.381882,"BG_OTHER_L":485.614357,"BG_ENG_LVW":554.498324,"BG_POP25PL":10423.519035,"BG_NOHSDEG":513.959308,"BG_HS_GRAD":5336.921239,"BG_BACHELO":3027.26997,"BG_GRADDEG":1545.368473,"BG_POP16PL":11774.70152,"BG_EMPLOYE":6780.977677,"BG_HHS":5426.736811,"BG_FAMS":3694.921665,"BG_CHILD":1635.4178,"BG_HHINC0_":510.367568,"BG_HHINC25":641.360851,"BG_HHINC50":781.471537,"BG_HHINC75":2664.647042,"BG_HHINC20":828.889843,"BG_HOUSING":5635.859507,"BG_VACANT":209.122631,"BG_OCCUPIE":5426.736811,"BG_RENTED":1653.044394,"BG_OWNED":3773.692467,"BG_SINGLEF":4698.233995,"BG_MULTIFA":937.625493},"geometry":{"type":"Polygon","coordinates":[[[-121.26574424481366,38.77752531972619],[-121.26574424481366,38.77767028415216],[-121.26574244818308,38.77799032534389],[-121.2657415498678,38.77817380564201],[-121.26573795660666,38.779200446233396],[-121.2657361599761,38.77968644965378],[-121.26573256671496,38.78054990289242],[-121.26572987176912,38.78090214399298],[-121.26572627850798,38.781818102765676],[-121.2657244818774,38.782180841596116],[-121.26571819367041,38.78327044752703],[-121.26571729535513,38.783633879221284],[-121.26571639703985,38.78375712346003],[-121.26571549872455,38.784037223210376],[-121.26571909198569,38.784128955639424],[-121.26572627850798,38.784252899268324],[-121.26569843073418,38.785109995076766],[-121.26564543013241,38.78677093899667],[-121.26564902339352,38.787116147188975],[-121.26565980317694,38.78813215592175],[-121.26570471894115,38.79207491691431],[-121.26617813109587,38.79228636765577],[-121.26863322676736,38.79324629012131],[-121.26848410643021,38.79325609232634],[-121.26842481762147,38.79334081132795],[-121.26823347646595,38.79359426757456],[-121.26806998308425,38.793777007568885],[-121.26795320209732,38.79390093442488],[-121.26788672676629,38.79396814890072],[-121.26769628392604,38.79414808734179],[-121.26762621533388,38.79420619965957],[-121.26737648368488,38.79441414334834],[-121.26710249752324,38.794621386286416],[-121.26704410702976,38.79466409506024],[-121.2657029223106,38.79555327191575],[-121.26535976587203,38.795789216982804],[-121.26501840606407,38.79602516126879],[-121.26488276045617,38.79611687827296],[-121.26456206189977,38.79633601842342],[-121.26416500654415,38.796606267010176],[-121.2635182195396,38.79713205860397],[-121.26302684107918,38.797673248829796],[-121.26272321051314,38.798147224474576],[-121.26235939282309,38.79874791581432],[-121.26227045960995,38.79891314005021],[-121.261922811595,38.79967414673353],[-121.26183298006659,38.800008090983056],[-121.26159133325515,38.80063116936113],[-121.26097958054669,38.80226024854507],[-121.26061755948716,38.803210935904445],[-121.26047832061812,38.80357916633373],[-121.26024206369843,38.80422391503073],[-121.26018187657438,38.80436392483452],[-121.26008306189313,38.804552237586734],[-121.2599707724826,38.80472934912628],[-121.25985039823453,38.80489245936416],[-121.25977493975067,38.80498206482951],[-121.25961234468424,38.80514937473266],[-121.25943447825799,38.805308283774785],[-121.25927817139855,38.80542939042794],[-121.25910928812516,38.80554279647141],[-121.25886674299845,38.80567930350659],[-121.25862150292585,38.80579830942637],[-121.25825588860523,38.805969817608215],[-121.25761538980765,38.80627503114741],[-121.25665329413837,38.80672514872857],[-121.25644847825359,38.8068371526615],[-121.2562319842701,38.80697015710315],[-121.25603704985346,38.807110861531655],[-121.25589511603856,38.807231965120764],[-121.25588253962458,38.80722286485822],[-121.25546033144106,38.806934455935306],[-121.25532019425674,38.80683785268553],[-121.25530941447332,38.80683085244495],[-121.25525282061041,38.80679725128057],[-121.2551575991903,38.80675384975316],[-121.25512525984007,38.8067440494046],[-121.25505339461735,38.80672444870344],[-121.25492942710812,38.80669784774324],[-121.2548018663378,38.806683147208325],[-121.2546716106216,38.806681047131654],[-121.25450901555516,38.80669014746341],[-121.25448206609664,38.80669294756528],[-121.25426736874373,38.80671814847692],[-121.25426647042845,38.806549442204016],[-121.25425479232977,38.80648993989629],[-121.25413711302754,38.80581441021203],[-121.25409848547031,38.80558899888184],[-121.25407872253408,38.80540698921281],[-121.25408590905636,38.80508007067817],[-121.25410746862315,38.80491836095556],[-121.25412273998299,38.80484135619674],[-121.25416406248605,38.80465794452693],[-121.25324598426569,38.804685246293964],[-121.24944341566801,38.804997465757495],[-121.24920805706357,38.80465584439059],[-121.24827111422223,38.80529498303154],[-121.24636488918934,38.806125924696424],[-121.24450088497478,38.80691415526324],[-121.24264676222835,38.8085122904726],[-121.24262071108512,38.80896239391874],[-121.24264676222835,38.80930889463435],[-121.24263688076023,38.81047928459058],[-121.24262250771568,38.81209483913428],[-121.23958889700124,38.81212143807927],[-121.23805277786538,38.81572480333205],[-121.23574500590047,38.818823355673494],[-121.23436249867821,38.820836257577554],[-121.23415408953231,38.82116100415384],[-121.23342555583686,38.821123210447396],[-121.23343004741328,38.822923988277886],[-121.23049794632595,38.82293028707105],[-121.23049884464123,38.8232074334188],[-121.2297478530637,38.82420193201315],[-121.2297694126305,38.82447627400849],[-121.22991044813013,38.824723320870135],[-121.2300362122699,38.82513483045326],[-121.23006316172842,38.82545395869657],[-121.23007214488126,38.825558234939685],[-121.23003711058517,38.825749990853886],[-121.22972090360518,38.82642603130721],[-121.22918101611941,38.826744453934495],[-121.22882977484332,38.827046779154934],[-121.2286339421114,38.827277021343555],[-121.22826922610604,38.828052421170945],[-121.2278128819417,38.82857378182992],[-121.22646540901552,38.82992510289136],[-121.22583389337079,38.831242808669],[-121.22566590841265,38.83178234021498],[-121.22561021286502,38.832397443175374],[-121.22535059974794,38.8329901482803],[-121.22546827905015,38.83367031854088],[-121.22547726220299,38.833720001504766],[-121.22544222790691,38.83408807421344],[-121.2253227519741,38.83429730100728],[-121.22507751190156,38.83451702346649],[-121.2249724090133,38.83473604549758],[-121.2250074433094,38.83523146664681],[-121.22521854740116,38.83564221574748],[-121.22509907146839,38.83581785049969],[-121.22474783019229,38.8361369308529],[-121.22469932116694,38.83638393724924],[-121.22472627062547,38.83654417606772],[-121.2247693897591,38.83679607915778],[-121.22466428687085,38.83700529799086],[-121.22476759312855,38.83719702307046],[-121.22512781755746,38.837867357062365],[-121.22542336328594,38.83797581343005],[-121.22538832898985,38.83822421287514],[-121.2257251972214,38.838772787732815],[-121.22564075558468,38.8389029336983],[-121.22562009433317,38.83893721942382],[-121.22579616412884,38.839063866552316],[-121.22620310095255,38.839146431962256],[-121.2262291520958,38.839170921684065],[-121.22628933921985,38.83923039668767],[-121.22612943909927,38.83923739374365],[-121.22495084944651,38.83926818078177],[-121.22307426881797,38.83933045452274],[-121.22146089456771,38.839392028505166],[-121.22078086989761,38.83940392347289],[-121.22048442585385,38.83941931695761],[-121.22016013403629,38.839440308067736],[-121.22015743909043,38.838790280483956],[-121.22015294751401,38.83812485320114],[-121.22014935425287,38.83751189890521],[-121.22014935425287,38.83750210278911],[-121.22015294751401,38.83730338128601],[-121.22015025256815,38.83687584828374],[-121.22014396436117,38.8366701277242],[-121.22012420142494,38.83646440656999],[-121.22009006544413,38.836260784025654],[-121.22004425136464,38.83606135931958],[-121.21998406424059,38.83586193405471],[-121.220159235721,38.83587732830559],[-121.22043142525209,38.835873829612495],[-121.22042783199097,38.83576537004146],[-121.22040717073942,38.83517198830115],[-121.22041256063112,38.83458280012171],[-121.2204197471534,38.833773882989796],[-121.22040896736998,38.83332813493211],[-121.22036494992108,38.83304193101844],[-121.22034159372367,38.832822903774144],[-121.22031194931931,38.83253879714327],[-121.22031913584158,38.83223719502079],[-121.22032183078744,38.832146224292174],[-121.2203353055167,38.831876110520476],[-121.22033979709312,38.831787238666806],[-121.22039279769488,38.8303281848903],[-121.22047184943987,38.828165091381734],[-121.22045118818835,38.82712306008411],[-121.22046556123288,38.826654875844866],[-121.22051496857351,38.82626716937604],[-121.22060300347137,38.82596834002513],[-121.22069912320676,38.82564921408746],[-121.22112222970556,38.82460644611607],[-121.22190825557918,38.823250125058294],[-121.22316589697694,38.82108611660491],[-121.22341742525649,38.82063888932269],[-121.22410283981829,38.81918310657339],[-121.22412709433095,38.81911241636494],[-121.22464542224989,38.81763280520363],[-121.22520417435662,38.816271451792744],[-121.22524280191385,38.81613426512143],[-121.2258114354887,38.814151328261666],[-121.22645283260154,38.81210603869128],[-121.2266298007125,38.8114963602462],[-121.22696846557461,38.810337886825245],[-121.22708344993099,38.809947291539714],[-121.22743648783765,38.808778292852885],[-121.22791708651465,38.80719136394043],[-121.22814436028153,38.806456338571124],[-121.22840936329037,38.80560019946165],[-121.22850997460218,38.805275381931715],[-121.22864831515594,38.80483015549762],[-121.22887199566168,38.80410910678635],[-121.22913340540934,38.80344685561904],[-121.22930408531336,38.80301631905339],[-121.22982510817813,38.80202502497295],[-121.23011885727603,38.80156087618235],[-121.23050153958707,38.8009623087989],[-121.23064347340197,38.80076978605721],[-121.23107017316191,38.8001964152471],[-121.23121300529209,38.8000052906185],[-121.23124983621874,38.79994508275387],[-121.23136212562925,38.79976795932229],[-121.2313998548712,38.79970915144529],[-121.23195142045563,38.79892434167946],[-121.23224606786883,38.79850637969543],[-121.23363486329806,38.79659226451789],[-121.23419900529652,38.795817222280164],[-121.23432297280571,38.79565199086673],[-121.2346975702792,38.79515839474446],[-121.23482243610368,38.79499386194406],[-121.23483411420237,38.794976358432315],[-121.23487004681375,38.794925248153376],[-121.23488352154301,38.794908444766016],[-121.23508743911249,38.79458497878684],[-121.23515930433523,38.794472955594706],[-121.23552671528643,38.793949244835815],[-121.235771955359,38.79366918402736],[-121.23602438195385,38.79338282071292],[-121.2360782808709,38.793314205371374],[-121.23624357088318,38.793108358950384],[-121.2362983681155,38.79304044350417],[-121.23652833682823,38.792709267257],[-121.237220039597,38.791717829800994],[-121.23745090662503,38.79138804776043],[-121.23762158652902,38.79115908990503],[-121.23813542287151,38.79047291211121],[-121.23830610277551,38.79024535169055],[-121.23850283382274,38.78996387594986],[-121.2390975185408,38.78912084245557],[-121.2392951479033,38.78884146287729],[-121.2396463891794,38.78836532473219],[-121.24070190963825,38.7869410925336],[-121.24105404922963,38.78646634214476],[-121.24109357510213,38.78649295065726],[-121.24112052456066,38.78651115647589],[-121.24121484766549,38.78657137568896],[-121.24125617016855,38.78659728393942],[-121.24131815392316,38.786632995296216],[-121.24151398665508,38.78673382726593],[-121.24154632600532,38.78674713147351],[-121.24175383683594,38.786833958872506],[-121.24244823455057,38.787137853936294],[-121.24266023695763,38.78723098280943],[-121.24274557690963,38.78727719709231],[-121.243024952963,38.78739833438853],[-121.24386487775364,38.78776314546513],[-121.24399154020868,38.78781846214483],[-121.24414874538343,38.787875179202246],[-121.24425474658693,38.78779115391592],[-121.24432122191796,38.78773443679163],[-121.24470120928315,38.78741093825724],[-121.24473893852507,38.787382929657085],[-121.24483685489105,38.787310107245176],[-121.24501651794786,38.7871777663254],[-121.24508478990947,38.78712595023698],[-121.24555730374891,38.78679124540719],[-121.24632536331684,38.78630318973257],[-121.24696855706027,38.785717098374036],[-121.24716349147691,38.78551333071565],[-121.24775098967274,38.78490202424641],[-121.24777614250068,38.78487681561968],[-121.24794772071996,38.784698954500115],[-121.24752102096002,38.78443496296528],[-121.24716259316163,38.78422208844284],[-121.24633973636138,38.783736115934396],[-121.24526355465102,38.783110088830156],[-121.24509017980117,38.78301625431626],[-121.24488356728581,38.78291681760708],[-121.24476139640717,38.78287130075731],[-121.24458891987264,38.78279917399741],[-121.24446405404814,38.78273124872965],[-121.24395650591262,38.78243223672999],[-121.24443979953548,38.781752277374686],[-121.24589417198044,38.779715861858236],[-121.24637926223389,38.77903727719543],[-121.2465202977335,38.77883699194316],[-121.24694520086287,38.77824033464111],[-121.24708713467776,38.77804144776449],[-121.24769798907097,38.77721087896823],[-121.24776626103257,38.77711983795546],[-121.24848850652101,38.77623533345132],[-121.24933741446448,38.775247868908366],[-121.24969135068642,38.77485077824865],[-121.25027435730583,38.77419806005031],[-121.2503767652482,38.774083203440334],[-121.25049803781155,38.77394313415343],[-121.25065075140988,38.77394383450055],[-121.25072351494788,38.77394383450055],[-121.25090856789643,38.77394313415343],[-121.25131280977428,38.77394103311203],[-121.25164788137522,38.77394103311203],[-121.25227400712828,38.77394313415343],[-121.25326215394082,38.77394523519477],[-121.25333940905524,38.77398025254125],[-121.25349841086052,38.77398025254125],[-121.25415687596377,38.773942433806305],[-121.25579809798786,38.7739571410945],[-121.25622120448669,38.773945935541875],[-121.25660927668945,38.77394733623604],[-121.25723360581189,38.77394943727726],[-121.25749142229844,38.77394313415343],[-121.25753993132379,38.773942433806305],[-121.25826487175807,38.773924224778625],[-121.25852448487515,38.77391792165258],[-121.25901316838974,38.77407479929085],[-121.25906257573037,38.77409230793444],[-121.25959527669384,38.774284202386404],[-121.2601234860809,38.77449430520892],[-121.26059689823565,38.77469880469515],[-121.26064001736927,38.77471911454362],[-121.26110175142531,38.774936919796446],[-121.26115205708123,38.77496213193712],[-121.26138112747867,38.77507698713178],[-121.26168475804471,38.77522825954496],[-121.26423058355991,38.77649445308819],[-121.26437431400535,38.77656518558225],[-121.26540737658209,38.77707921961996],[-121.26574604144422,38.77725499880184],[-121.26574604144422,38.777341137445966],[-121.26574514312894,38.777495906618306],[-121.26574424481366,38.77752531972619]]]}},{"type":"Feature","properties":{"FID":2,"ID":4,"AREA":3.341707,"DISTRICT":"3","MEMBERS":1,"LOCKED":" ","NAME":" ","POPULATION":13325,"HISPANIC_O":1670,"NH_WHT":9373,"DOJ_NH_BLK":247,"DOJ_NH_IND":231,"DOJ_NH_ASN":1466,"DOJ_NH_HWN":56,"DOJ_NH_OTH":203,"DOJ_NH_OT1":79,"F18_POPULA":10379,"H18_POP":1154,"NH18_WHT":7618,"DOJ_NH18_B":172,"DOJ_NH18_I":172,"DOJ_NH18_A":1030,"DOJ_NH18_H":38,"DOJ_NH18_O":143,"DOJ_NH18_1":52,"ST1822_M1_":9366.442724,"ST1822_M11":1072.418964,"ST1822_M12":7180.867808,"ST1822_M13":120.041876,"ST1822_M14":825.842291,"ST1822_M15":0,"ST1822_M16":28.401173,"ST1822_M2_":9232.609227,"ST1822_M21":1052.40513,"ST1822_M22":7190.987087,"ST1822_M23":130.454548,"ST1822_M24":836.429115,"ST1822_M25":0,"ST1822_M26":22.333334,"ACS1822_TO":9703.250402,"ACS1822_M1":935.300025,"ACS1822_M2":7586.163191,"ACS1822_M3":77.190651,"ACS1822_M4":671.752523,"ACS1822_M5":6.194962,"ACS1822_M6":347.698761,"ACS1822_M7":694.645114,"ACS1822_M8":968.746169,"ACS1822_M9":7500.363727,"ACS1822_10":86.925926,"ACS1822_11":716.742938,"ACS1822_12":1.6,"ACS1822_13":301.931583,"ACS1822_14":812.895251,"ACS1822_15":9550.752327,"ACS1822_16":9420.212391,"ACS1822_17":9775.867285,"ACS1822_18":1132.666237,"ACS1822_19":7292.586489,"ACS1822_20":86,"ACS1822_21":2,"ACS1822_22":854.959643,"ACS1822_23":130.539945,"ACS1822_24":52,"SWDB_CVAP1":9527,"SWDB_CVAP2":9539,"SWDB_CVAP3":953,"SWDB_CVAP4":7569,"SWDB_CVAP5":238,"SWDB_CVAP6":103,"SWDB_CVAP7":657,"SWDB_CVAP8":19,"G20_REG_TO":9416,"G20_REG_SS":699,"G20_REG_AS":335,"G20_REG_FI":122,"G20_REG_LA":742,"G20_REG_WH":8013,"G20_REG_BL":202,"G20_VOTE_T":8385,"G20_VOTE_S":610,"G20_VOTE_A":284,"G20_VOTE_F":103,"G20_VOTE_L":643,"G20_VOTE_W":7168,"G20_VOTE_B":175,"G22_REG_TO":9223.999999,"G22_REG_LA":781.64837,"G22_REG_SS":702.177342,"G22_REG_AS":385.870558,"G22_REG_FI":131.7008,"G22_REG_WH":7772.837069,"G22_REG_BL":151.943202,"G22_VOT_TO":6356.08317,"G22_VOT_SS":419.616364,"G22_VOT_LA":467.107705,"G22_VOT_AS":202.989842,"G22_VOT_FI":73.38841,"G22_VOT_WH":5505.736587,"G22_VOT_BL":106.860626,"TRACT_ACSP":12806.095514,"TRACT_BORN":11294.735663,"TRACT_IMMI":1511.359942,"TRACT_CIT":762.681298,"TRACT_NONC":748.678646,"BG_ACSPOP":12377.769349,"BG_AGE0_19":2880.319158,"BG_AGE20_6":5930.991695,"BG_AGE60PL":3566.45866,"BG_POP5PLU":11866.278752,"BG_ENGLISH":10312.539054,"BG_SPANISH":206.270217,"BG_ASIAN_L":448.540229,"BG_OTHER_L":898.929343,"BG_ENG_LVW":370.563852,"BG_POP25PL":8847.454258,"BG_NOHSDEG":357.212109,"BG_HS_GRAD":4146.354341,"BG_BACHELO":2990.758785,"BG_GRADDEG":1353.128964,"BG_POP16PL":10398.591034,"BG_EMPLOYE":5509.15068,"BG_HHS":4808.071057,"BG_FAMS":3453.117776,"BG_CHILD":1338.930469,"BG_HHINC0_":303.844567,"BG_HHINC25":522.095866,"BG_HHINC50":520.523662,"BG_HHINC75":2432.781392,"BG_HHINC20":1028.825583,"BG_HOUSING":4969.017338,"BG_VACANT":160.946269,"BG_OCCUPIE":4808.071057,"BG_RENTED":1519.930239,"BG_OWNED":3288.140803,"BG_SINGLEF":3791.360326,"BG_MULTIFA":1177.656997},"geometry":{"type":"Polygon","coordinates":[[[-121.26513788199686,38.79613298124626],[-121.26538042712357,38.79635492185532],[-121.26554751376644,38.79650824950646],[-121.26677640907509,38.79763614277479],[-121.26705039523677,38.79788678329924],[-121.2671833458988,38.798016303895174],[-121.26780947165183,38.79858619172092],[-121.26810411906503,38.79885503157024],[-121.26827929054542,38.7990279566665],[-121.26853980197782,38.79931289710408],[-121.26904375685221,38.799921279630574],[-121.26949830438599,38.80047995083971],[-121.2696734758664,38.8006941769837],[-121.26990434289439,38.80097491026932],[-121.27003010703417,38.80114012934187],[-121.27030948308754,38.80148176756502],[-121.2711494078782,38.80250807253998],[-121.27142878393155,38.802851104331005],[-121.27173690607401,38.803229137453265],[-121.27266306913194,38.804365324931176],[-121.27288674963768,38.804639043297506],[-121.27297298790495,38.80474335001972],[-121.27280230800098,38.80482525519122],[-121.2719857394077,38.80521937875964],[-121.27160126046611,38.80540628917471],[-121.27094638862397,38.805736006351985],[-121.27034182243777,38.8060412208928],[-121.27002022556604,38.806198027854876],[-121.26982079957297,38.806293931942854],[-121.26950099933183,38.806451438376556],[-121.26939859138943,38.80650184036179],[-121.26922880980077,38.80657814329939],[-121.26909496082342,38.80663134529925],[-121.26903207875354,38.806652346077755],[-121.26892338260414,38.80669084748889],[-121.26868712568441,38.80676225005086],[-121.26841403783804,38.80682945239674],[-121.2681741876572,38.80687005378335],[-121.26796757514185,38.80689105449145],[-121.26778701376973,38.8069008548198],[-121.26729114373289,38.80690435493675],[-121.26690307153017,38.80689035446795],[-121.26654374541651,38.80689595465579],[-121.26622304686006,38.806919055425986],[-121.26596343374298,38.80695125648709],[-121.26557625985552,38.80702125874365],[-121.26526903602834,38.8070940610175],[-121.26493306611208,38.80718716381699],[-121.26456206189977,38.80732786781693],[-121.2642135155695,38.80748887205305],[-121.26392156310217,38.807649875925286],[-121.26382723999734,38.80771007727972],[-121.26374279836062,38.80776187840445],[-121.26338976045396,38.807989382898114],[-121.26273488861185,38.808417789387846],[-121.2622632730877,38.80872929248904],[-121.25994741628523,38.81025598799121],[-121.25974080376986,38.810393185984694],[-121.25966804023186,38.81044498515845],[-121.2594740041305,38.81060528236283],[-121.25940034227717,38.81067178109722],[-121.25925122194002,38.81082717789765],[-121.2591685769339,38.81092797564101],[-121.25887213289015,38.811660154967974],[-121.25857389221581,38.812397926524426],[-121.25855772254069,38.812458823835215],[-121.25845621291357,38.812859204857986],[-121.25805915755801,38.81441031008926],[-121.25843914492317,38.814471205679524],[-121.25894579474343,38.81455099982248],[-121.25909222013475,38.814564998785706],[-121.25935093493655,38.814580397642075],[-121.25961054805367,38.814580397642075],[-121.25986387296379,38.81456779857802],[-121.26006689221802,38.814545400236405],[-121.26019984288006,38.81452510173325],[-121.26036513289233,38.81449920363461],[-121.26061486454132,38.814450207206],[-121.26079183265229,38.814417309585025],[-121.26168475804471,38.81425282125224],[-121.2617754878884,38.81423602242241],[-121.26221745900818,38.814187025812764],[-121.26226237477239,38.8141828261018],[-121.2625112081061,38.814167427159475],[-121.26281843193325,38.81416042763913],[-121.26310050293247,38.814163227447345],[-121.26323345359452,38.81417022696741],[-121.26344096442517,38.81418142619809],[-121.2637383067842,38.814210824170246],[-121.26405181881836,38.81425632100795],[-121.26415422676075,38.81427381978395],[-121.2644677387949,38.81433681534198],[-121.2648764722492,38.81441940943364],[-121.2648477261601,38.814534201062955],[-121.26456116358446,38.81572410339535],[-121.26445695901151,38.81617346134018],[-121.26434916117742,38.816641014572134],[-121.2642997538368,38.81686079152785],[-121.2642018374708,38.8171792569322],[-121.2641730913817,38.817421429671086],[-121.26439856851805,38.817976464084595],[-121.26441114493203,38.81831592183994],[-121.2643204150883,38.8183880126601],[-121.26433388981758,38.81857418861533],[-121.26436173759137,38.81862388211506],[-121.26466446984213,38.81881635661074],[-121.26472016538976,38.81904732531886],[-121.26484592952953,38.819140412495486],[-121.2649654054623,38.819255896417665],[-121.26497888019156,38.81940427548523],[-121.26491599812168,38.81949736219526],[-121.26493037116624,38.81953585666385],[-121.26490881159943,38.82000828708352],[-121.26486030257408,38.82006777809936],[-121.26469141930066,38.82024415117189],[-121.26457823157486,38.8203148402569],[-121.26441024661672,38.82039812730661],[-121.2642413633433,38.820502410954205],[-121.26413626045507,38.820650087536194],[-121.26410841268127,38.82071587700491],[-121.26408685311445,38.82074877171649],[-121.26418207453456,38.820850955191666],[-121.26423417682105,38.8209083458463],[-121.2642135155695,38.82101332863141],[-121.26417848127342,38.82105742135501],[-121.26388293554494,38.82120999596566],[-121.26346252399199,38.82130308031525],[-121.2632514199002,38.821309379251794],[-121.26307535010453,38.821309379251794],[-121.26289299210184,38.82128698303042],[-121.26279777068174,38.82128278373812],[-121.2627312953507,38.82128138397397],[-121.26247258054887,38.82136327013066],[-121.26237286755234,38.82140736263758],[-121.26221925563877,38.82140036382876],[-121.26211415275051,38.821396164543145],[-121.26195874420635,38.82143535786589],[-121.26174135190762,38.82143535786589],[-121.26164972374862,38.82145145511716],[-121.26153114613113,38.82155503734281],[-121.26133441508391,38.821885379650446],[-121.26117900653975,38.822016256369665],[-121.26106671712924,38.82203795248704],[-121.26096880076327,38.822033053364336],[-121.26094095298946,38.82205544935107],[-121.26086998608201,38.822159030698096],[-121.26076937477018,38.82219192474298],[-121.2604073537107,38.82231300269221],[-121.26030943734473,38.82237319165396],[-121.26021421592462,38.822413784180824],[-121.26015402880057,38.82243897953069],[-121.26004173939006,38.822538361101515],[-121.25987285611664,38.82265313964455],[-121.2597677532284,38.82276791800256],[-121.25961054805367,38.82296528035627],[-121.2595359878851,38.82305906227591],[-121.25933925683788,38.82310315373273],[-121.259184746609,38.82325712368529],[-121.2591003049723,38.82338799788319],[-121.25896735431026,38.823525870441095],[-121.25891076044735,38.82353076946108],[-121.25879128451457,38.82348737812946],[-121.25867899510403,38.823509073798576],[-121.2584328567162,38.823744926291155],[-121.25817324359907,38.823821910615166],[-121.25811754805147,38.82393178809705],[-121.25804029293705,38.82403606656955],[-121.2577663067754,38.8241242482459],[-121.25768905166095,38.824184435676585],[-121.25767378030113,38.82421732878581],[-121.25766479714828,38.82422502717086],[-121.2575552026836,38.824332104622314],[-121.25739350593247,38.824371296329005],[-121.25719048667824,38.82449097087126],[-121.25719048667824,38.82451336608488],[-121.25725875863986,38.824569354088155],[-121.25735128511411,38.82459594837429],[-121.2573584716364,38.82462884129341],[-121.25733242049314,38.824647037369765],[-121.25742225202156,38.82471842193221],[-121.257493218929,38.824774409774214],[-121.25753633806265,38.824891284252566],[-121.2576405426356,38.82497246641203],[-121.25773127247932,38.82504385064817],[-121.25785344335794,38.82513902951836],[-121.25821995599387,38.82542526520689],[-121.25834302518778,38.82552114340763],[-121.25800975021738,38.825782883239825],[-121.25778337476578,38.82596204150073],[-121.25764593252732,38.826052320297315],[-121.257499507136,38.82613000196087],[-121.25734320027654,38.826195086532636],[-121.25712940123894,38.82626227054432],[-121.25700094215331,38.82628886419811],[-121.25695782301969,38.8262951626936],[-121.25690751736376,38.82630146118853],[-121.25687517801353,38.82630496035215],[-121.25645386814529,38.8263602471144],[-121.25647183445096,38.82644002793613],[-121.25649788559421,38.82655410035929],[-121.25651136032347,38.82660798726862],[-121.25655897103354,38.8267199599368],[-121.25662634467984,38.8268249341533],[-121.25668473517331,38.82689211757061],[-121.25683924540216,38.82702998334304],[-121.25698836573932,38.82716434972726],[-121.25700723036032,38.827181145507474],[-121.25708448547473,38.82727422205092],[-121.2571311978695,38.82735190238123],[-121.25713928270706,38.82737499651714],[-121.25717341868787,38.82746387387938],[-121.25719138499355,38.82756534789746],[-121.25719048667824,38.827668221409546],[-121.25717521531843,38.82774800076555],[-121.2571311978695,38.82785927182329],[-121.25707190906076,38.82795234748015],[-121.2569614162808,38.8280748152643],[-121.25695333144327,38.828081813417036],[-121.2567862448004,38.828250468689774],[-121.25676827849472,38.828269363653966],[-121.25661017500472,38.82843241998826],[-121.25656256429465,38.828482806419466],[-121.25645117319942,38.8285779806922],[-121.25634337536533,38.82864096359687],[-121.2562203061714,38.82869484892661],[-121.25615922073209,38.8287214416717],[-121.2560397447993,38.82877392732368],[-121.25582414913112,38.828864902362106],[-121.25536421170564,38.829058048981295],[-121.2553103127886,38.829080442758325],[-121.25521778631432,38.829127329706154],[-121.2550893272287,38.82920220879759],[-121.25498602097103,38.8292728889892],[-121.25487732482163,38.829363863389965],[-121.25483959557971,38.829400253117726],[-121.25473449269148,38.82951432079763],[-121.25465274600062,38.82962278989427],[-121.25464376284778,38.82963608609475],[-121.25457099930976,38.82976484917086],[-121.25432486092191,38.83031978737195],[-121.25430689461624,38.8303512780607],[-121.25427186032015,38.83041495918874],[-121.25398799269036,38.83080684179958],[-121.25389816116194,38.830931404034736],[-121.25372927788855,38.83116233344464],[-121.25365022614353,38.83126380219086],[-121.25358375081251,38.83133308076897],[-121.2535002074911,38.83140935710528],[-121.2534499018352,38.83144434622303],[-121.25338881639587,38.83148843248692],[-121.25329539160631,38.83153811697378],[-121.25302679533637,38.831670375509276],[-121.25246894154492,38.8319103996312],[-121.25227400712828,38.83198597557201],[-121.25194791868014,38.83209933933278],[-121.25169908534643,38.832146224292174],[-121.25154098185644,38.83217211597291],[-121.25124184286682,38.832223199531654],[-121.25093102577853,38.83230227400918],[-121.25087353360034,38.83232116789789],[-121.25080885489987,38.832341461328305],[-121.2507109385339,38.83237714976091],[-121.2505968524928,38.832430332489984],[-121.25023303480275,38.83264796140159],[-121.25019261061496,38.832664056117835],[-121.25010906729355,38.832696945309245],[-121.24991772613804,38.83274942803005],[-121.2497838771607,38.832771120876664],[-121.24976141927858,38.83277531949138],[-121.24956917980779,38.832789314871974],[-121.2494892297475,38.832794213254545],[-121.24907510640153,38.832820104699564],[-121.24821721530519,38.83287538640207],[-121.24812918040735,38.83287608617018],[-121.24798634827717,38.83287398686583],[-121.24783543130945,38.83285929173364],[-121.24778512565352,38.83285439335555],[-121.24742849448575,38.832789314871974],[-121.24736740904642,38.83295096131832],[-121.24735034105602,38.833053827047536],[-121.24733686632675,38.83335192689268],[-121.24733417138088,38.8334282010656],[-121.24732608654335,38.8338039726325],[-121.24731530675993,38.83388794366119],[-121.24725242469005,38.834124461526116],[-121.2472155937634,38.834214030216536],[-121.24715540663935,38.83431689412038],[-121.24707096500264,38.83444005070766],[-121.24696406548385,38.83466397122949],[-121.24691106488208,38.834824213920434],[-121.24689399689169,38.83489628802627],[-121.24687872553186,38.83498585574538],[-121.24686704743316,38.835064927153724],[-121.24685087775804,38.8352629551626],[-121.2468589625956,38.83541130087187],[-121.24687513227072,38.8355253589192],[-121.24688142047769,38.83555894653022],[-121.24692274298076,38.8357891611873],[-121.24696406548385,38.83601377720188],[-121.24709252456947,38.836812172936014],[-121.24709611783061,38.83709486305584],[-121.24708174478606,38.838562874383705],[-121.24707725320964,38.83913943489733],[-121.2461915143395,38.83913313753831],[-121.24612144574733,38.83913103841851],[-121.2455465239655,38.83911634457821],[-121.24369240121906,38.83910934751032],[-121.24334834646527,38.839105848976125],[-121.24325402336045,38.839105848976125],[-121.24311298786083,38.839105848976125],[-121.24289739219265,38.839097452493334],[-121.24247787895496,38.839056169771936],[-121.24230540242039,38.83902118439609],[-121.24227755464659,38.83905826889396],[-121.2421922146946,38.8391723210965],[-121.24216526523607,38.83921010522143],[-121.24026622672544,38.83920520728045],[-121.23457090782412,38.83918981374942],[-121.23267276762877,38.83918491580704],[-121.23165946798831,38.83916182550266],[-121.23165587472717,38.83904707357587],[-121.22970024235363,38.83891832729139],[-121.22970383561477,38.8391303387119],[-121.2281524451191,38.839133837244894],[-121.22667471647671,38.83921430345629],[-121.22628933921985,38.83923039668767],[-121.2262291520958,38.839170921684065],[-121.22620310095255,38.839146431962256],[-121.22579616412884,38.839063866552316],[-121.22562009433317,38.83893721942382],[-121.22564075558468,38.8389029336983],[-121.2257251972214,38.838772787732815],[-121.22538832898985,38.83822421287514],[-121.22542336328594,38.83797581343005],[-121.22512781755746,38.837867357062365],[-121.22476759312855,38.83719702307046],[-121.22466428687085,38.83700529799086],[-121.2247693897591,38.83679607915778],[-121.22472627062547,38.83654417606772],[-121.22469932116694,38.83638393724924],[-121.22474783019229,38.8361369308529],[-121.22509907146839,38.83581785049969],[-121.22521854740116,38.83564221574748],[-121.2250074433094,38.83523146664681],[-121.2249724090133,38.83473604549758],[-121.22507751190156,38.83451702346649],[-121.2253227519741,38.83429730100728],[-121.22544222790691,38.83408807421344],[-121.22547726220299,38.833720001504766],[-121.22546827905015,38.83367031854088],[-121.22535059974794,38.8329901482803],[-121.22561021286502,38.832397443175374],[-121.22566590841265,38.83178234021498],[-121.22583389337079,38.831242808669],[-121.22646540901552,38.82992510289136],[-121.2278128819417,38.82857378182992],[-121.22826922610604,38.828052421170945],[-121.2286339421114,38.827277021343555],[-121.22882977484332,38.827046779154934],[-121.22918101611941,38.826744453934495],[-121.22972090360518,38.82642603130721],[-121.23003711058517,38.825749990853886],[-121.23007214488126,38.825558234939685],[-121.23006316172842,38.82545395869657],[-121.2300362122699,38.82513483045326],[-121.22991044813013,38.824723320870135],[-121.2297694126305,38.82447627400849],[-121.2297478530637,38.82420193201315],[-121.23049884464123,38.8232074334188],[-121.23049794632595,38.82293028707105],[-121.23343004741328,38.822923988277886],[-121.23342555583686,38.821123210447396],[-121.23415408953231,38.82116100415384],[-121.23436249867821,38.820836257577554],[-121.23574500590047,38.818823355673494],[-121.23805277786538,38.81572480333205],[-121.23958889700124,38.81212143807927],[-121.24262250771568,38.81209483913428],[-121.24263688076023,38.81047928459058],[-121.24264676222835,38.80930889463435],[-121.24262071108512,38.80896239391874],[-121.24264676222835,38.8085122904726],[-121.24450088497478,38.80691415526324],[-121.24636488918934,38.806125924696424],[-121.24827111422223,38.80529498303154],[-121.24920805706357,38.80465584439059],[-121.24944341566801,38.804997465757495],[-121.25324598426569,38.804685246293964],[-121.25416406248605,38.80465794452693],[-121.25412273998299,38.80484135619674],[-121.25410746862315,38.80491836095556],[-121.25408590905636,38.80508007067817],[-121.25407872253408,38.80540698921281],[-121.25409848547031,38.80558899888184],[-121.25413711302754,38.80581441021203],[-121.25425479232977,38.80648993989629],[-121.25426647042845,38.806549442204016],[-121.25426736874373,38.80671814847692],[-121.25448206609664,38.80669294756528],[-121.25450901555516,38.80669014746341],[-121.2546716106216,38.806681047131654],[-121.2548018663378,38.806683147208325],[-121.25492942710812,38.80669784774324],[-121.25505339461735,38.80672444870344],[-121.25512525984007,38.8067440494046],[-121.2551575991903,38.80675384975316],[-121.25525282061041,38.80679725128057],[-121.25530941447332,38.80683085244495],[-121.25532019425674,38.80683785268553],[-121.25546033144106,38.806934455935306],[-121.25588253962458,38.80722286485822],[-121.25589511603856,38.807231965120764],[-121.25603704985346,38.807110861531655],[-121.2562319842701,38.80697015710315],[-121.25644847825359,38.8068371526615],[-121.25665329413837,38.80672514872857],[-121.25761538980765,38.80627503114741],[-121.25825588860523,38.805969817608215],[-121.25862150292585,38.80579830942637],[-121.25886674299845,38.80567930350659],[-121.25910928812516,38.80554279647141],[-121.25927817139855,38.80542939042794],[-121.25943447825799,38.805308283774785],[-121.25961234468424,38.80514937473266],[-121.25977493975067,38.80498206482951],[-121.25985039823453,38.80489245936416],[-121.2599707724826,38.80472934912628],[-121.26008306189313,38.804552237586734],[-121.26018187657438,38.80436392483452],[-121.26024206369843,38.80422391503073],[-121.26047832061812,38.80357916633373],[-121.26061755948716,38.803210935904445],[-121.26097958054669,38.80226024854507],[-121.26159133325515,38.80063116936113],[-121.26183298006659,38.800008090983056],[-121.261922811595,38.79967414673353],[-121.26227045960995,38.79891314005021],[-121.26235939282309,38.79874791581432],[-121.26272321051314,38.798147224474576],[-121.26302684107918,38.797673248829796],[-121.2635182195396,38.79713205860397],[-121.26416500654415,38.796606267010176],[-121.26456206189977,38.79633601842342],[-121.26488276045617,38.79611687827296],[-121.26501840606407,38.79602516126879],[-121.26506152519772,38.796062968292446],[-121.26513788199686,38.79613298124626]]]}},{"type":"Feature","properties":{"FID":3,"ID":5,"AREA":2.812838,"DISTRICT":"4","MEMBERS":1,"LOCKED":" ","NAME":" ","POPULATION":14367,"HISPANIC_O":1998,"NH_WHT":8501,"DOJ_NH_BLK":367,"DOJ_NH_IND":200,"DOJ_NH_ASN":2825,"DOJ_NH_HWN":71,"DOJ_NH_OTH":277,"DOJ_NH_OT1":128,"F18_POPULA":10392,"H18_POP":1326,"NH18_WHT":6382,"DOJ_NH18_B":263,"DOJ_NH18_I":153,"DOJ_NH18_A":1964,"DOJ_NH18_H":50,"DOJ_NH18_O":178,"DOJ_NH18_1":76,"ST1822_M1_":9267.168589,"ST1822_M11":1121.80722,"ST1822_M12":6155.542087,"ST1822_M13":281.26506,"ST1822_M14":1473.427709,"ST1822_M15":54.999999,"ST1822_M16":69,"ST1822_M2_":9148.513088,"ST1822_M21":1131.734705,"ST1822_M22":6137.521061,"ST1822_M23":262.368425,"ST1822_M24":1492.888894,"ST1822_M25":55,"ST1822_M26":69.000001,"ACS1822_TO":9251.494335,"ACS1822_M1":1189.128528,"ACS1822_M2":6011.965984,"ACS1822_M3":244.632581,"ACS1822_M4":1299.649932,"ACS1822_M5":39.700396,"ACS1822_M6":310.024469,"ACS1822_M7":770.960413,"ACS1822_M8":1198.471692,"ACS1822_M9":5900.370358,"ACS1822_10":228.893856,"ACS1822_11":1369.657962,"ACS1822_12":37.55,"ACS1822_13":314.454549,"ACS1822_14":767.66668,"ACS1822_15":9175.130409,"ACS1822_16":9020.050525,"ACS1822_17":9296.190222,"ACS1822_18":1134.122313,"ACS1822_19":6028.430014,"ACS1822_20":203,"ACS1822_21":103,"ACS1822_22":1484.59717,"ACS1822_23":155.07989,"ACS1822_24":66.901008,"SWDB_CVAP1":8506,"SWDB_CVAP2":8452,"SWDB_CVAP3":1158,"SWDB_CVAP4":5768,"SWDB_CVAP5":167,"SWDB_CVAP6":74,"SWDB_CVAP7":1234,"SWDB_CVAP8":51,"G20_REG_TO":8267,"G20_REG_SS":882,"G20_REG_AS":577,"G20_REG_FI":155,"G20_REG_LA":947,"G20_REG_WH":6371,"G20_REG_BL":207,"G20_VOTE_T":7102,"G20_VOTE_S":738,"G20_VOTE_A":482,"G20_VOTE_F":134,"G20_VOTE_L":790,"G20_VOTE_W":5497,"G20_VOTE_B":184,"G22_REG_TO":8356.999999,"G22_REG_LA":988.580536,"G22_REG_SS":888.070494,"G22_REG_AS":608.290806,"G22_REG_FI":157.949371,"G22_REG_WH":6228.082401,"G22_REG_BL":339.532168,"G22_VOT_TO":4899.538127,"G22_VOT_SS":473.509771,"G22_VOT_LA":527.10066,"G22_VOT_AS":287.82277,"G22_VOT_FI":88.636292,"G22_VOT_WH":3771.276159,"G22_VOT_BL":203.637391,"TRACT_ACSP":14668.596163,"TRACT_BORN":11998.005699,"TRACT_IMMI":2670.590444,"TRACT_CIT":1357.357091,"TRACT_NONC":1313.233354,"BG_ACSPOP":14759.625066,"BG_AGE0_19":4542.039921,"BG_AGE20_6":8577.052809,"BG_AGE60PL":1640.532411,"BG_POP5PLU":14027.751043,"BG_ENGLISH":10397.463833,"BG_SPANISH":1043.460514,"BG_ASIAN_L":1111.051538,"BG_OTHER_L":1475.775141,"BG_ENG_LVW":1206.256022,"BG_POP25PL":8921.957802,"BG_NOHSDEG":231.710842,"BG_HS_GRAD":4525.740916,"BG_BACHELO":2864.524042,"BG_GRADDEG":1299.981914,"BG_POP16PL":11139.758909,"BG_EMPLOYE":7491.680673,"BG_HHS":4801.999958,"BG_FAMS":3584.999993,"BG_CHILD":2270.000002,"BG_HHINC0_":190.000001,"BG_HHINC25":415.999998,"BG_HHINC50":763.999997,"BG_HHINC75":2339.999966,"BG_HHINC20":1092.000005,"BG_HOUSING":4948.99996,"BG_VACANT":146.999998,"BG_OCCUPIE":4801.999958,"BG_RENTED":2610.999963,"BG_OWNED":2191.000001,"BG_SINGLEF":2835.999989,"BG_MULTIFA":2112.999972},"geometry":{"type":"Polygon","coordinates":[[[-121.30056294522612,38.796195292717336],[-121.30055935196498,38.79641933351151],[-121.30055575870384,38.79671828684935],[-121.30053509745231,38.796996935435565],[-121.30052880924531,38.797089351309005],[-121.30051713114663,38.79731688988058],[-121.30048748674224,38.79754302749504],[-121.30042909624878,38.7978041700394],[-121.30011738084521,38.79901395465002],[-121.3000715667657,38.79927719209942],[-121.30004282067662,38.79954112867213],[-121.30003473583905,38.799781961190625],[-121.30004192236133,38.80002419307715],[-121.30014882188016,38.80076908597359],[-121.30021439889587,38.801168832616284],[-121.30023326351683,38.80141806056159],[-121.30023775509325,38.80166798771004],[-121.30023506014741,38.80175479693466],[-121.300230568571,38.80180030172787],[-121.30025033150724,38.80189341144501],[-121.3003141118924,38.80231205363221],[-121.30035723102606,38.802615182643876],[-121.30041023162782,38.802975015408705],[-121.3004228080418,38.80322283691767],[-121.30046233391428,38.80383188611651],[-121.30044436760859,38.80539508856442],[-121.30044616423918,38.80637513530326],[-121.30042729961822,38.808979893995286],[-121.30041921478066,38.810047390535615],[-121.30041023162782,38.81072498004003],[-121.30038328216929,38.81275281012045],[-121.30033297651339,38.81647583144565],[-121.30033207819808,38.81700917558574],[-121.30033028156753,38.817223352029785],[-121.30032938325225,38.81729194434956],[-121.30002395605565,38.81729684379843],[-121.29979219071235,38.8172982436409],[-121.2990420974501,38.81729404411342],[-121.29843393800274,38.817291244428255],[-121.29807101862797,38.81737313517329],[-121.29243409022011,38.81726534733545],[-121.29231461428732,38.81726394749232],[-121.29179359142255,38.81725904804119],[-121.29128245002589,38.81725484851134],[-121.2908350890144,38.81726184772758],[-121.29057008600559,38.81726604725699],[-121.29051888203438,38.81726744710007],[-121.29007331765344,38.817261147805986],[-121.2899529434054,38.8172541485897],[-121.28963404147954,38.81722195218584],[-121.28947144641309,38.81719815483451],[-121.28941215760435,38.81718835592282],[-121.28931244460779,38.8171680581729],[-121.28920734171956,38.81714426080356],[-121.28899983088891,38.81708826696198],[-121.28869440369232,38.81698537816331],[-121.28845006193507,38.816887388693026],[-121.28821829659175,38.816771900929986],[-121.28800449755413,38.81664591406581],[-121.28780417324576,38.816510827902725],[-121.28761642535137,38.81636594245858],[-121.2874457454474,38.8162133574693],[-121.28730560826308,38.8160698712866],[-121.2871753525469,38.815915885793366],[-121.28667139767249,38.81524534508235],[-121.28655641331612,38.81509205774934],[-121.28597789827315,38.81539583232578],[-121.28551706253239,38.815680007369494],[-121.28532033148518,38.81581509510845],[-121.28500951439688,38.81604677348384],[-121.28478134231472,38.81623505535468],[-121.28444986397486,38.81653532541247],[-121.28412287721146,38.81683699405584],[-121.28387494219302,38.81703997223826],[-121.28370336397377,38.817170157940424],[-121.28335391932822,38.817410930870004],[-121.28313383208362,38.817547415163375],[-121.28267209802759,38.81780778447448],[-121.28238553545195,38.81795126715577],[-121.28218700777417,38.81804085619554],[-121.28192559802648,38.81815214242391],[-121.28152045783335,38.81830192361397],[-121.2809805703476,38.818476901240786],[-121.28088175566634,38.818504197711796],[-121.28052602281385,38.81858608706207],[-121.28012537419711,38.81866587659486],[-121.27979928574898,38.818719069567024],[-121.27929982245102,38.81878346100652],[-121.27903661607274,38.818805158108866],[-121.27748792052293,38.81890244503495],[-121.27743132666005,38.8189059445622],[-121.27737383448186,38.818909444089265],[-121.27658241871654,38.81895703764031],[-121.27625722858369,38.81896403668925],[-121.27604073460023,38.81896123706976],[-121.27558079717475,38.81894023992004],[-121.27525201378077,38.81891014399467],[-121.27491514554924,38.81886535003566],[-121.27466541390025,38.818826855204605],[-121.27431686756998,38.818753365014864],[-121.27389106612534,38.81864417945003],[-121.27361079175668,38.818562290166575],[-121.27347873940991,38.818518895807244],[-121.27355599452436,38.81838381319684],[-121.27342124723172,38.818338318995764],[-121.27315354927705,38.81824243112291],[-121.27288674963768,38.81813814416576],[-121.27263791630399,38.81802335834505],[-121.2724384903109,38.81791907106707],[-121.2721501311047,38.8177622899054],[-121.27200640065924,38.817678999772895],[-121.27163809139276,38.81746482469913],[-121.27121498489393,38.81719745491228],[-121.27091674421959,38.817007775737565],[-121.2704199758675,38.8166830102212],[-121.26995375023502,38.816386240437126],[-121.26969054385677,38.816218256992364],[-121.26953423699736,38.816115366936785],[-121.26906531641905,38.815817194915816],[-121.26892428091942,38.81573740219144],[-121.26873024481806,38.815628212002686],[-121.26848680137606,38.81550222311533],[-121.26803405047288,38.81528314190829],[-121.26778611545446,38.815178150675614],[-121.2673980432517,38.815033262520394],[-121.26726599090496,38.814987066235005],[-121.26695337718608,38.81488487434576],[-121.26686444397295,38.81485687654229],[-121.26659045781129,38.81477988252598],[-121.26626077610202,38.81469798879913],[-121.26598409499451,38.81464129308695],[-121.26591402640236,38.81462729413872],[-121.26515315335669,38.814474005475525],[-121.2648764722492,38.81441940943364],[-121.2644677387949,38.81433681534198],[-121.26415422676075,38.81427381978395],[-121.26405181881836,38.81425632100795],[-121.2637383067842,38.814210824170246],[-121.26344096442517,38.81418142619809],[-121.26323345359452,38.81417022696741],[-121.26310050293247,38.814163227447345],[-121.26281843193325,38.81416042763913],[-121.2625112081061,38.814167427159475],[-121.26226237477239,38.8141828261018],[-121.26221745900818,38.814187025812764],[-121.2617754878884,38.81423602242241],[-121.26168475804471,38.81425282125224],[-121.26079183265229,38.814417309585025],[-121.26061486454132,38.814450207206],[-121.26036513289233,38.81449920363461],[-121.26019984288006,38.81452510173325],[-121.26006689221802,38.814545400236405],[-121.25986387296379,38.81456779857802],[-121.25961054805367,38.814580397642075],[-121.25935093493655,38.814580397642075],[-121.25909222013475,38.814564998785706],[-121.25894579474343,38.81455099982248],[-121.25843914492317,38.814471205679524],[-121.25805915755801,38.81441031008926],[-121.25845621291357,38.812859204857986],[-121.25855772254069,38.812458823835215],[-121.25857389221581,38.812397926524426],[-121.25887213289015,38.811660154967974],[-121.2591685769339,38.81092797564101],[-121.25925122194002,38.81082717789765],[-121.25940034227717,38.81067178109722],[-121.2594740041305,38.81060528236283],[-121.25966804023186,38.81044498515845],[-121.25974080376986,38.810393185984694],[-121.25994741628523,38.81025598799121],[-121.2622632730877,38.80872929248904],[-121.26273488861185,38.808417789387846],[-121.26338976045396,38.807989382898114],[-121.26374279836062,38.80776187840445],[-121.26382723999734,38.80771007727972],[-121.26392156310217,38.807649875925286],[-121.2642135155695,38.80748887205305],[-121.26456206189977,38.80732786781693],[-121.26493306611208,38.80718716381699],[-121.26526903602834,38.8070940610175],[-121.26557625985552,38.80702125874365],[-121.26596343374298,38.80695125648709],[-121.26622304686006,38.806919055425986],[-121.26654374541651,38.80689595465579],[-121.26690307153017,38.80689035446795],[-121.26729114373289,38.80690435493675],[-121.26778701376973,38.8069008548198],[-121.26796757514185,38.80689105449145],[-121.2681741876572,38.80687005378335],[-121.26841403783804,38.80682945239674],[-121.26868712568441,38.80676225005086],[-121.26892338260414,38.80669084748889],[-121.26903207875354,38.806652346077755],[-121.26909496082342,38.80663134529925],[-121.26922880980077,38.80657814329939],[-121.26939859138943,38.80650184036179],[-121.26950099933183,38.806451438376556],[-121.26982079957297,38.806293931942854],[-121.27002022556604,38.806198027854876],[-121.27034182243777,38.8060412208928],[-121.27094638862397,38.805736006351985],[-121.27160126046611,38.80540628917471],[-121.2719857394077,38.80521937875964],[-121.27280230800098,38.80482525519122],[-121.27297298790495,38.80474335001972],[-121.27288674963768,38.804639043297506],[-121.27266306913194,38.804365324931176],[-121.27173690607401,38.803229137453265],[-121.27142878393155,38.802851104331005],[-121.2711494078782,38.80250807253998],[-121.27030948308754,38.80148176756502],[-121.27003010703417,38.80114012934187],[-121.26990434289439,38.80097491026932],[-121.2696734758664,38.8006941769837],[-121.26949830438599,38.80047995083971],[-121.26904375685221,38.799921279630574],[-121.26853980197782,38.79931289710408],[-121.26827929054542,38.7990279566665],[-121.26810411906503,38.79885503157024],[-121.26780947165183,38.79858619172092],[-121.2671833458988,38.798016303895174],[-121.26705039523677,38.79788678329924],[-121.26677640907509,38.79763614277479],[-121.26554751376644,38.79650824950646],[-121.26538042712357,38.79635492185532],[-121.26513788199686,38.79613298124626],[-121.26506152519772,38.796062968292446],[-121.26501840606407,38.79602516126879],[-121.26535976587203,38.795789216982804],[-121.2657029223106,38.79555327191575],[-121.26704410702976,38.79466409506024],[-121.26710249752324,38.794621386286416],[-121.26737648368488,38.79441414334834],[-121.26762621533388,38.79420619965957],[-121.26769628392604,38.79414808734179],[-121.26788672676629,38.79396814890072],[-121.26795320209732,38.79390093442488],[-121.26806998308425,38.793777007568885],[-121.26823347646595,38.79359426757456],[-121.26842481762147,38.79334081132795],[-121.26848410643021,38.79325609232634],[-121.26863322676736,38.79324629012131],[-121.27415157755773,38.79539784180091],[-121.27492951859378,38.7957024004911],[-121.27649887539512,38.79566179274094],[-121.27656355409559,38.79568209661892],[-121.27664799573228,38.795759811408736],[-121.27714117082327,38.7957423080851],[-121.27802511306285,38.79577101353364],[-121.27880934230589,38.79578011525881],[-121.2789153435094,38.795775914462716],[-121.27933934832353,38.79578011525881],[-121.27992415157347,38.79578431605464],[-121.28044876769941,38.795775214330014],[-121.28061854928809,38.795766812737014],[-121.28149979658181,38.795759811408736],[-121.28239721355067,38.795763312072964],[-121.2833045119876,38.795763312072964],[-121.2840977243835,38.795761911807304],[-121.28410221595992,38.795637288052916],[-121.28423606493725,38.795637288052916],[-121.2865303621729,38.79566879407881],[-121.29153846988186,38.79574090781904],[-121.29157350417793,38.795911039946105],[-121.29176394701818,38.79590333850057],[-121.29254548131534,38.79587393297358],[-121.29342942355494,38.79589213639648],[-121.2939522430503,38.7959341442777],[-121.29425587361634,38.79600695787988],[-121.29469425147495,38.796046165173294],[-121.29498620394232,38.79604896569342],[-121.29525929178868,38.79601745983557],[-121.29528174967079,38.79601535944456],[-121.29542098853982,38.796002056966685],[-121.29543895484551,38.795999956575216],[-121.29569677133203,38.795957248601844],[-121.29576773823948,38.795945346375206],[-121.29579917927443,38.79594044545776],[-121.29589979058626,38.79592294217847],[-121.29596177434084,38.795908239420534],[-121.29609292837235,38.795878133763914],[-121.29654388264497,38.79577381406458],[-121.29658340851748,38.795764012205794],[-121.2966274259664,38.79575491047854],[-121.2970002268093,38.79566879407881],[-121.2971304825255,38.79567999621801],[-121.29718977133425,38.795667393811286],[-121.29724636519715,38.795654791402356],[-121.2973002641142,38.795642889125205],[-121.2975041816837,38.795598080534575],[-121.29791650839911,38.79551196394533],[-121.29851837963946,38.795396441528055],[-121.2988444680876,38.795341130728666],[-121.29904119913482,38.795312425107],[-121.29933584654802,38.79527881851082],[-121.29961252765553,38.79525921465575],[-121.29982003848615,38.79525291341547],[-121.30003832910019,38.795245912036734],[-121.30007875328798,38.795245912036734],[-121.3003311798828,38.795245211898816],[-121.3005755216401,38.795245912036734],[-121.30057192837896,38.79543494902128],[-121.3005701317484,38.795621885101845],[-121.30056474185668,38.79600485748854],[-121.30056294522612,38.796195292717336]]]}},{"type":"Feature","properties":{"FID":4,"ID":6,"AREA":3.680134,"DISTRICT":"5","MEMBERS":1,"LOCKED":" ","NAME":" ","POPULATION":14031,"HISPANIC_O":1807,"NH_WHT":7938,"DOJ_NH_BLK":396,"DOJ_NH_IND":239,"DOJ_NH_ASN":3208,"DOJ_NH_HWN":77,"DOJ_NH_OTH":229,"DOJ_NH_OT1":137,"F18_POPULA":9424,"H18_POP":1049,"NH18_WHT":5637,"DOJ_NH18_B":263,"DOJ_NH18_I":159,"DOJ_NH18_A":2056,"DOJ_NH18_H":51,"DOJ_NH18_O":131,"DOJ_NH18_1":78,"ST1822_M1_":8823.55106,"ST1822_M11":1404.191809,"ST1822_M12":5813.761589,"ST1822_M13":210.000003,"ST1822_M14":1227.747671,"ST1822_M15":0,"ST1822_M16":73.995099,"ST1822_M2_":8721.889131,"ST1822_M21":1400.904812,"ST1822_M22":5802.148011,"ST1822_M23":209.999998,"ST1822_M24":1233.836312,"ST1822_M25":0,"ST1822_M26":75,"ACS1822_TO":8847.639731,"ACS1822_M1":1330.276826,"ACS1822_M2":5657.119116,"ACS1822_M3":130.270906,"ACS1822_M4":1144.125496,"ACS1822_M5":54.671995,"ACS1822_M6":226.799298,"ACS1822_M7":1176.797362,"ACS1822_M8":1331.919131,"ACS1822_M9":5706.985501,"ACS1822_10":134.180271,"ACS1822_11":1108.897356,"ACS1822_12":62.6,"ACS1822_13":227.81819,"ACS1822_14":1191.310729,"ACS1822_15":8444.906648,"ACS1822_16":8351.201746,"ACS1822_17":8613.115014,"ACS1822_18":915.603684,"ACS1822_19":5471.668703,"ACS1822_20":262,"ACS1822_21":157,"ACS1822_22":1466.929412,"ACS1822_23":93.70486,"ACS1822_24":78,"SWDB_CVAP1":7296,"SWDB_CVAP2":7294,"SWDB_CVAP3":953,"SWDB_CVAP4":5177,"SWDB_CVAP5":130,"SWDB_CVAP6":1,"SWDB_CVAP7":1033,"SWDB_CVAP8":0,"G20_REG_TO":8217,"G20_REG_SS":809,"G20_REG_AS":620,"G20_REG_FI":230,"G20_REG_LA":862,"G20_REG_WH":6295,"G20_REG_BL":191,"G20_VOTE_T":7272,"G20_VOTE_S":701,"G20_VOTE_A":533,"G20_VOTE_F":203,"G20_VOTE_L":740,"G20_VOTE_W":5602,"G20_VOTE_B":162,"G22_REG_TO":8964.999999,"G22_REG_LA":995.334015,"G22_REG_SS":894.137339,"G22_REG_AS":784.655879,"G22_REG_FI":266.952629,"G22_REG_WH":6519.913853,"G22_REG_BL":379.77607,"G22_VOT_TO":5627.176635,"G22_VOT_SS":504.914015,"G22_VOT_LA":562.059174,"G22_VOT_AS":376.814686,"G22_VOT_FI":134.013382,"G22_VOT_WH":4292.729072,"G22_VOT_BL":248.829584,"TRACT_ACSP":14085.398613,"TRACT_BORN":12043.759419,"TRACT_IMMI":2041.639169,"TRACT_CIT":1169.266705,"TRACT_NONC":872.37246,"BG_ACSPOP":14102.125299,"BG_AGE0_19":5114.936021,"BG_AGE20_6":7503.504457,"BG_AGE60PL":1483.684834,"BG_POP5PLU":13077.420383,"BG_ENGLISH":10872.962315,"BG_SPANISH":526.714557,"BG_ASIAN_L":990.433845,"BG_OTHER_L":687.309742,"BG_ENG_LVW":841.887754,"BG_POP25PL":8015.94811,"BG_NOHSDEG":252.055884,"BG_HS_GRAD":2942.055321,"BG_BACHELO":3069.904853,"BG_GRADDEG":1751.932184,"BG_POP16PL":10126.699306,"BG_EMPLOYE":6590.641006,"BG_HHS":3988.792025,"BG_FAMS":3406.09421,"BG_CHILD":2258.817994,"BG_HHINC0_":121.958875,"BG_HHINC25":268.851241,"BG_HHINC50":334.47511,"BG_HHINC75":1930.278637,"BG_HHINC20":1333.228142,"BG_HOUSING":4088.792032,"BG_VACANT":99.999999,"BG_OCCUPIE":3988.792025,"BG_RENTED":670.699031,"BG_OWNED":3318.092974,"BG_SINGLEF":3519.973937,"BG_MULTIFA":568.818084},"geometry":{"type":"Polygon","coordinates":[[[-121.30031860346882,38.81831592183994],[-121.30031231526185,38.81891924276416],[-121.30031051863129,38.819082320512315],[-121.30030512873957,38.81957435111163],[-121.30030423042429,38.81973812725683],[-121.30029884053259,38.8201370675728],[-121.30029614558673,38.820480014479024],[-121.30028716243388,38.82133737451863],[-121.30028356917276,38.8217384055079],[-121.30027638265048,38.822307403716444],[-121.30025931466008,38.82401437106101],[-121.3002530264531,38.82458405093171],[-121.30025212813783,38.824670132383105],[-121.30025033150724,38.8248429948207],[-121.30023955172383,38.82577308550945],[-121.30019912753606,38.82934216950496],[-121.30019104269849,38.83004826707763],[-121.30018655112207,38.83053182440737],[-121.30018475449151,38.830559816048016],[-121.3001838561762,38.830645890274056],[-121.3001838561762,38.830675281449366],[-121.30018116123037,38.83095589658342],[-121.30017577133867,38.831312787051054],[-121.30017217807753,38.83164028496459],[-121.30017038144695,38.8319138985191],[-121.30015511008713,38.833228768422565],[-121.30014882188016,38.83386835043003],[-121.30014792356485,38.83389144245189],[-121.30014792356485,38.833962117987454],[-121.30014792356485,38.8339859097361],[-121.30013534715088,38.83515309516919],[-121.30010660106178,38.837876453409216],[-121.30009761790895,38.83865733546744],[-121.30009132970196,38.839201009045034],[-121.29972481706604,38.839203108162785],[-121.29949844161443,38.839203108162785],[-121.29926308300998,38.83920590698632],[-121.29925320154186,38.83916112579635],[-121.29243858179653,38.839167423152894],[-121.29065452764229,38.83916812285915],[-121.29065542595757,38.839240892271384],[-121.28262897889397,38.839280775475366],[-121.28002027130886,38.839261183728816],[-121.26612243554825,38.83921500316208],[-121.26529149391044,38.83919611110342],[-121.26470758897578,38.83919611110342],[-121.25625354383692,38.83920590698632],[-121.24707096500264,38.839217801985164],[-121.24707725320964,38.83913943489733],[-121.24708174478606,38.838562874383705],[-121.24709611783061,38.83709486305584],[-121.24709252456947,38.836812172936014],[-121.24696406548385,38.83601377720188],[-121.24692274298076,38.8357891611873],[-121.24688142047769,38.83555894653022],[-121.24687513227072,38.8355253589192],[-121.2468589625956,38.83541130087187],[-121.24685087775804,38.8352629551626],[-121.24686704743316,38.835064927153724],[-121.24687872553186,38.83498585574538],[-121.24689399689169,38.83489628802627],[-121.24691106488208,38.834824213920434],[-121.24696406548385,38.83466397122949],[-121.24707096500264,38.83444005070766],[-121.24715540663935,38.83431689412038],[-121.2472155937634,38.834214030216536],[-121.24725242469005,38.834124461526116],[-121.24731530675993,38.83388794366119],[-121.24732608654335,38.8338039726325],[-121.24733417138088,38.8334282010656],[-121.24733686632675,38.83335192689268],[-121.24735034105602,38.833053827047536],[-121.24736740904642,38.83295096131832],[-121.24742849448575,38.832789314871974],[-121.24778512565352,38.83285439335555],[-121.24783543130945,38.83285929173364],[-121.24798634827717,38.83287398686583],[-121.24812918040735,38.83287608617018],[-121.24821721530519,38.83287538640207],[-121.24907510640153,38.832820104699564],[-121.2494892297475,38.832794213254545],[-121.24956917980779,38.832789314871974],[-121.24976141927858,38.83277531949138],[-121.2497838771607,38.832771120876664],[-121.24991772613804,38.83274942803005],[-121.25010906729355,38.832696945309245],[-121.25019261061496,38.832664056117835],[-121.25023303480275,38.83264796140159],[-121.2505968524928,38.832430332489984],[-121.2507109385339,38.83237714976091],[-121.25080885489987,38.832341461328305],[-121.25087353360034,38.83232116789789],[-121.25093102577853,38.83230227400918],[-121.25124184286682,38.832223199531654],[-121.25154098185644,38.83217211597291],[-121.25169908534643,38.832146224292174],[-121.25194791868014,38.83209933933278],[-121.25227400712828,38.83198597557201],[-121.25246894154492,38.8319103996312],[-121.25302679533637,38.831670375509276],[-121.25329539160631,38.83153811697378],[-121.25338881639587,38.83148843248692],[-121.2534499018352,38.83144434622303],[-121.2535002074911,38.83140935710528],[-121.25358375081251,38.83133308076897],[-121.25365022614353,38.83126380219086],[-121.25372927788855,38.83116233344464],[-121.25389816116194,38.830931404034736],[-121.25398799269036,38.83080684179958],[-121.25427186032015,38.83041495918874],[-121.25430689461624,38.8303512780607],[-121.25432486092191,38.83031978737195],[-121.25457099930976,38.82976484917086],[-121.25464376284778,38.82963608609475],[-121.25465274600062,38.82962278989427],[-121.25473449269148,38.82951432079763],[-121.25483959557971,38.829400253117726],[-121.25487732482163,38.829363863389965],[-121.25498602097103,38.8292728889892],[-121.2550893272287,38.82920220879759],[-121.25521778631432,38.829127329706154],[-121.2553103127886,38.829080442758325],[-121.25536421170564,38.829058048981295],[-121.25582414913112,38.828864902362106],[-121.2560397447993,38.82877392732368],[-121.25615922073209,38.8287214416717],[-121.2562203061714,38.82869484892661],[-121.25634337536533,38.82864096359687],[-121.25645117319942,38.8285779806922],[-121.25656256429465,38.828482806419466],[-121.25661017500472,38.82843241998826],[-121.25676827849472,38.828269363653966],[-121.2567862448004,38.828250468689774],[-121.25695333144327,38.828081813417036],[-121.2569614162808,38.8280748152643],[-121.25707190906076,38.82795234748015],[-121.2571311978695,38.82785927182329],[-121.25717521531843,38.82774800076555],[-121.25719048667824,38.827668221409546],[-121.25719138499355,38.82756534789746],[-121.25717341868787,38.82746387387938],[-121.25713928270706,38.82737499651714],[-121.2571311978695,38.82735190238123],[-121.25708448547473,38.82727422205092],[-121.25700723036032,38.827181145507474],[-121.25698836573932,38.82716434972726],[-121.25683924540216,38.82702998334304],[-121.25668473517331,38.82689211757061],[-121.25662634467984,38.8268249341533],[-121.25655897103354,38.8267199599368],[-121.25651136032347,38.82660798726862],[-121.25649788559421,38.82655410035929],[-121.25647183445096,38.82644002793613],[-121.25645386814529,38.8263602471144],[-121.25687517801353,38.82630496035215],[-121.25690751736376,38.82630146118853],[-121.25695782301969,38.8262951626936],[-121.25700094215331,38.82628886419811],[-121.25712940123894,38.82626227054432],[-121.25734320027654,38.826195086532636],[-121.257499507136,38.82613000196087],[-121.25764593252732,38.826052320297315],[-121.25778337476578,38.82596204150073],[-121.25800975021738,38.825782883239825],[-121.25834302518778,38.82552114340763],[-121.25821995599387,38.82542526520689],[-121.25785344335794,38.82513902951836],[-121.25773127247932,38.82504385064817],[-121.2576405426356,38.82497246641203],[-121.25753633806265,38.824891284252566],[-121.257493218929,38.824774409774214],[-121.25742225202156,38.82471842193221],[-121.25733242049314,38.824647037369765],[-121.2573584716364,38.82462884129341],[-121.25735128511411,38.82459594837429],[-121.25725875863986,38.824569354088155],[-121.25719048667824,38.82451336608488],[-121.25719048667824,38.82449097087126],[-121.25739350593247,38.824371296329005],[-121.2575552026836,38.824332104622314],[-121.25766479714828,38.82422502717086],[-121.25767378030113,38.82421732878581],[-121.25768905166095,38.824184435676585],[-121.2577663067754,38.8241242482459],[-121.25804029293705,38.82403606656955],[-121.25811754805147,38.82393178809705],[-121.25817324359907,38.823821910615166],[-121.2584328567162,38.823744926291155],[-121.25867899510403,38.823509073798576],[-121.25879128451457,38.82348737812946],[-121.25891076044735,38.82353076946108],[-121.25896735431026,38.823525870441095],[-121.2591003049723,38.82338799788319],[-121.259184746609,38.82325712368529],[-121.25933925683788,38.82310315373273],[-121.2595359878851,38.82305906227591],[-121.25961054805367,38.82296528035627],[-121.2597677532284,38.82276791800256],[-121.25987285611664,38.82265313964455],[-121.26004173939006,38.822538361101515],[-121.26015402880057,38.82243897953069],[-121.26021421592462,38.822413784180824],[-121.26030943734473,38.82237319165396],[-121.2604073537107,38.82231300269221],[-121.26076937477018,38.82219192474298],[-121.26086998608201,38.822159030698096],[-121.26094095298946,38.82205544935107],[-121.26096880076327,38.822033053364336],[-121.26106671712924,38.82203795248704],[-121.26117900653975,38.822016256369665],[-121.26133441508391,38.821885379650446],[-121.26153114613113,38.82155503734281],[-121.26164972374862,38.82145145511716],[-121.26174135190762,38.82143535786589],[-121.26195874420635,38.82143535786589],[-121.26211415275051,38.821396164543145],[-121.26221925563877,38.82140036382876],[-121.26237286755234,38.82140736263758],[-121.26247258054887,38.82136327013066],[-121.2627312953507,38.82128138397397],[-121.26279777068174,38.82128278373812],[-121.26289299210184,38.82128698303042],[-121.26307535010453,38.821309379251794],[-121.2632514199002,38.821309379251794],[-121.26346252399199,38.82130308031525],[-121.26388293554494,38.82120999596566],[-121.26417848127342,38.82105742135501],[-121.2642135155695,38.82101332863141],[-121.26423417682105,38.8209083458463],[-121.26418207453456,38.820850955191666],[-121.26408685311445,38.82074877171649],[-121.26410841268127,38.82071587700491],[-121.26413626045507,38.820650087536194],[-121.2642413633433,38.820502410954205],[-121.26441024661672,38.82039812730661],[-121.26457823157486,38.8203148402569],[-121.26469141930066,38.82024415117189],[-121.26486030257408,38.82006777809936],[-121.26490881159943,38.82000828708352],[-121.26493037116624,38.81953585666385],[-121.26491599812168,38.81949736219526],[-121.26497888019156,38.81940427548523],[-121.2649654054623,38.819255896417665],[-121.26484592952953,38.819140412495486],[-121.26472016538976,38.81904732531886],[-121.26466446984213,38.81881635661074],[-121.26436173759137,38.81862388211506],[-121.26433388981758,38.81857418861533],[-121.2643204150883,38.8183880126601],[-121.26441114493203,38.81831592183994],[-121.26439856851805,38.817976464084595],[-121.2641730913817,38.817421429671086],[-121.2642018374708,38.8171792569322],[-121.2642997538368,38.81686079152785],[-121.26434916117742,38.816641014572134],[-121.26445695901151,38.81617346134018],[-121.26456116358446,38.81572410339535],[-121.2648477261601,38.814534201062955],[-121.2648764722492,38.81441940943364],[-121.26515315335669,38.814474005475525],[-121.26591402640236,38.81462729413872],[-121.26598409499451,38.81464129308695],[-121.26626077610202,38.81469798879913],[-121.26659045781129,38.81477988252598],[-121.26686444397295,38.81485687654229],[-121.26695337718608,38.81488487434576],[-121.26726599090496,38.814987066235005],[-121.2673980432517,38.815033262520394],[-121.26778611545446,38.815178150675614],[-121.26803405047288,38.81528314190829],[-121.26848680137606,38.81550222311533],[-121.26873024481806,38.815628212002686],[-121.26892428091942,38.81573740219144],[-121.26906531641905,38.815817194915816],[-121.26953423699736,38.816115366936785],[-121.26969054385677,38.816218256992364],[-121.26995375023502,38.816386240437126],[-121.2704199758675,38.8166830102212],[-121.27091674421959,38.817007775737565],[-121.27121498489393,38.81719745491228],[-121.27163809139276,38.81746482469913],[-121.27200640065924,38.817678999772895],[-121.2721501311047,38.8177622899054],[-121.2724384903109,38.81791907106707],[-121.27263791630399,38.81802335834505],[-121.27288674963768,38.81813814416576],[-121.27315354927705,38.81824243112291],[-121.27342124723172,38.818338318995764],[-121.27355599452436,38.81838381319684],[-121.27347873940991,38.818518895807244],[-121.27361079175668,38.818562290166575],[-121.27389106612534,38.81864417945003],[-121.27431686756998,38.818753365014864],[-121.27466541390025,38.818826855204605],[-121.27491514554924,38.81886535003566],[-121.27525201378077,38.81891014399467],[-121.27558079717475,38.81894023992004],[-121.27604073460023,38.81896123706976],[-121.27625722858369,38.81896403668925],[-121.27658241871654,38.81895703764031],[-121.27737383448186,38.818909444089265],[-121.27743132666005,38.8189059445622],[-121.27748792052293,38.81890244503495],[-121.27903661607274,38.818805158108866],[-121.27929982245102,38.81878346100652],[-121.27979928574898,38.818719069567024],[-121.28012537419711,38.81866587659486],[-121.28052602281385,38.81858608706207],[-121.28088175566634,38.818504197711796],[-121.2809805703476,38.818476901240786],[-121.28152045783335,38.81830192361397],[-121.28192559802648,38.81815214242391],[-121.28218700777417,38.81804085619554],[-121.28238553545195,38.81795126715577],[-121.28267209802759,38.81780778447448],[-121.28313383208362,38.817547415163375],[-121.28335391932822,38.817410930870004],[-121.28370336397377,38.817170157940424],[-121.28387494219302,38.81703997223826],[-121.28412287721146,38.81683699405584],[-121.28444986397486,38.81653532541247],[-121.28478134231472,38.81623505535468],[-121.28500951439688,38.81604677348384],[-121.28532033148518,38.81581509510845],[-121.28551706253239,38.815680007369494],[-121.28597789827315,38.81539583232578],[-121.28655641331612,38.81509205774934],[-121.28667139767249,38.81524534508235],[-121.2871753525469,38.815915885793366],[-121.28730560826308,38.8160698712866],[-121.2874457454474,38.8162133574693],[-121.28761642535137,38.81636594245858],[-121.28780417324576,38.816510827902725],[-121.28800449755413,38.81664591406581],[-121.28821829659175,38.816771900929986],[-121.28845006193507,38.816887388693026],[-121.28869440369232,38.81698537816331],[-121.28899983088891,38.81708826696198],[-121.28920734171956,38.81714426080356],[-121.28931244460779,38.8171680581729],[-121.28941215760435,38.81718835592282],[-121.28947144641309,38.81719815483451],[-121.28963404147954,38.81722195218584],[-121.2899529434054,38.8172541485897],[-121.29007331765344,38.817261147805986],[-121.29051888203438,38.81726744710007],[-121.29057008600559,38.81726604725699],[-121.2908350890144,38.81726184772758],[-121.29128245002589,38.81725484851134],[-121.29179359142255,38.81725904804119],[-121.29231461428732,38.81726394749232],[-121.29243409022011,38.81726534733545],[-121.29807101862797,38.81737313517329],[-121.29843393800274,38.817291244428255],[-121.2990420974501,38.81729404411342],[-121.29979219071235,38.8172982436409],[-121.30002395605565,38.81729684379843],[-121.30032938325225,38.81729194434956],[-121.30031860346882,38.81831592183994]]]}}]}