{"type":"FeatureCollection","crs":{"type":"name","properties":{"name":"EPSG:4326"}},"features":[{"type":"Feature","id":1,"properties":{"DISTRICT":5,"POPULATION":11272},"geometry":{"type":"Polygon","coordinates":[[[-121.27305742954167,39.03418873939061],[-121.27234776046723,39.03352584087714],[-121.27193453543651,39.033330459076176],[-121.27140452941889,39.032562882485855],[-121.27073079295579,39.03211628863334],[-121.27036248368931,39.032053486146474],[-121.26922162327848,39.032848980189556],[-121.26854788681538,39.032541948462026],[-121.26754177369716,39.031711560516825],[-121.26717346443068,39.03160688907501],[-121.26586192411587,39.03031592854624],[-121.26543073277948,39.030246146224265],[-121.2648647941505,39.03033686322941],[-121.26358020329421,39.03007866837046],[-121.26168475804471,39.02930407813441],[-121.26053491448103,39.029129619702765],[-121.25849573878608,39.029513427683966],[-121.2578669180872,39.029115663009655],[-121.25767827187755,39.028320126945594],[-121.25703148487297,39.0280200539993],[-121.25337534166661,39.02766415187669],[-121.25269262205067,39.02780372155013],[-121.2510846376921,39.028627177013774],[-121.24969224900173,39.028927247382626],[-121.24898257992726,39.028676025765286],[-121.24819206247723,39.0281945151696],[-121.24830884346416,39.027719979779135],[-121.247922567892,39.026114909994654],[-121.24678170748116,39.02485874300158],[-121.24627865092208,39.024474909745756],[-121.24493117799587,39.023951497401946],[-121.24402387955894,39.02293955588186],[-121.24283810338389,39.02268133400186],[-121.24097859074575,39.02137625223339],[-121.24070011300769,39.021439064207236],[-121.23937958954001,39.02256967019411],[-121.23833754381046,39.02377702575948],[-121.23803211661384,39.02395847625869],[-121.236495997478,39.024181799310675],[-121.2359749746132,39.024084095562216],[-121.23339680974779,39.024747082633006],[-121.23294765210574,39.024670316027326],[-121.23230086510115,39.02407013787285],[-121.23126780252441,39.023818898992936],[-121.23007304319654,39.0231559032173],[-121.22895913224423,39.022102076083456],[-121.22562638254014,39.01780983640922],[-121.22307516713325,39.01411760390605],[-121.22222176761333,39.01232376541648],[-121.2217995594298,39.01196778427454],[-121.22100005882693,39.01177932294459],[-121.2201017435428,39.01179328306034],[-121.21634678565519,39.01277048431439],[-121.21445134040572,39.0127355845021],[-121.21352607566307,39.01292404328387],[-121.2130320022568,39.01279840415182],[-121.2120528385971,39.01219812521806],[-121.21095689395047,39.01199570442886],[-121.20956450526009,39.0119398641092],[-121.20888178564418,39.012128325011375],[-121.2082799144038,39.01215624510229],[-121.20592632835941,39.01185610354705],[-121.20540530549464,39.01257504514377],[-121.20549513702305,39.013496396505346],[-121.20468665326733,39.015639189992164],[-121.2029618879218,39.01588347828616],[-121.20186594327518,39.01651164430986],[-121.19936862678533,39.01728637472063],[-121.19889251968476,39.01755159579385],[-121.19846132834837,39.01734919032787],[-121.19770674350973,39.01665123600177],[-121.1961796075267,39.01642090956236],[-121.1944548421812,39.01584858001011],[-121.19228990234647,39.01553449475069],[-121.18857087707023,39.012749544429106],[-121.18774442700884,39.01249826532182],[-121.18681017911335,39.01272162457238],[-121.18692696010028,38.985312971052814],[-121.18663949920936,38.985312971052814],[-121.18645983615255,38.97233798163729],[-121.18647780245823,38.970976098390395],[-121.18675628019629,38.97096911430624],[-121.18645983615255,38.957802891578766],[-121.18639695408265,38.956161307658775],[-121.1862981394014,38.956161307658775],[-121.18635203831846,38.94531192684094],[-121.18657661713948,38.94522110080397],[-121.18630712255425,38.93456570055206],[-121.18644186984686,38.93407656177672],[-121.1864508529997,38.9269696935932],[-121.18184249559218,38.9269696935932],[-121.18193232712058,38.91963147197886],[-121.17262578077711,38.91963846112243],[-121.1725359492487,38.916716939113975],[-121.17276052806973,38.908671648073266],[-121.17256289870723,38.90866465784963],[-121.17259883131858,38.90755320353455],[-121.17280544383392,38.907434367766676],[-121.17276951122257,38.90667241605761],[-121.17329951724018,38.906896109150516],[-121.17419783252431,38.90686814755245],[-121.17503326573855,38.90649765533832],[-121.17569801904878,38.90635784645315],[-121.17666819955564,38.90578462714525],[-121.1775754979926,38.90494576127885],[-121.17872534155627,38.90440049315034],[-121.17948890954779,38.903687443894164],[-121.18090824769668,38.90336587031789],[-121.1814382537143,38.902967396691956],[-121.18144723686714,38.90156922592853],[-121.18044112374895,38.90046465155841],[-121.18018061231653,38.89987041140263],[-121.18012671339949,38.89905244917207],[-121.18031535960915,38.89785694896324],[-121.18254318151376,38.89782898380516],[-121.18225572062286,38.89057165306163],[-121.19135565445099,38.89050872498581],[-121.19128378922827,38.886446250126674],[-121.19265821161297,38.886446250126674],[-121.19263126215444,38.88740420402929],[-121.19463450523803,38.887823741816945],[-121.19481416829485,38.88715947250896],[-121.19576638249602,38.887411196346065],[-121.19575739934318,38.8879286258767],[-121.19490399982325,38.88856491918656],[-121.19531722485397,38.88932007308142],[-121.19591909609431,38.88959276557059],[-121.19594604555284,38.89038286866687],[-121.19608977599829,38.89056466105596],[-121.19584723087159,38.883201697151314],[-121.20081491439277,38.88310379885354],[-121.20087779646268,38.883012893170545],[-121.21012146073626,38.88305484965408],[-121.21013942704194,38.87583097668298],[-121.22875251972889,38.87565614006532],[-121.22876150288172,38.87927167379279],[-121.2334237592063,38.87927167379279],[-121.23344172551198,38.886544143818774],[-121.23796923454395,38.886523166610395],[-121.23797821769679,38.87959335647025],[-121.23761889158315,38.87243207574412],[-121.23724159916382,38.871606803667405],[-121.23569649687512,38.8695016170936],[-121.23490597942512,38.8688511647804],[-121.23396274837678,38.86841752659836],[-121.23584022732058,38.86841752659836],[-121.23242662924093,38.86667595306146],[-121.23312731516255,38.86657803199735],[-121.23510360878763,38.86688578345898],[-121.23601989037743,38.866808845718474],[-121.23660379531209,38.86655704889464],[-121.23830161119909,38.865284062411796],[-121.23901128027353,38.86496930949205],[-121.23995451132186,38.864766467983195],[-121.24858732120227,38.86527007342272],[-121.24965631639036,38.86520712293785],[-121.25098582301085,38.86480144069842],[-121.25290821771885,38.86388514988035],[-121.2541389096581,38.86486439154248],[-121.25454315153597,38.86502526566852],[-121.2541389096581,38.86559181947482],[-121.25624995057578,38.86652907141472],[-121.25660927668945,38.86694873245749],[-121.2574087772923,38.86696971544458],[-121.25882811544122,38.86725648231439],[-121.25872930075997,38.86798388577111],[-121.26110085311004,38.86801885690362],[-121.26355325383568,38.8678579895516],[-121.26409224300615,38.86794192038937],[-121.26632006491076,38.86877422916692],[-121.2661763344653,38.86924982980744],[-121.26629311545224,38.87150888939533],[-121.2695989156978,38.87159281592251],[-121.2695989156978,38.872397106782735],[-121.2671105823608,38.8723341626089],[-121.26707464974943,38.873823826438866],[-121.26762262207274,38.87456514985546],[-121.26843110582844,38.8748658731878],[-121.27017383747965,38.87493580866414],[-121.27148537779446,38.87532045255374],[-121.27197046804787,38.87531345904706],[-121.27197945120072,38.87462809205355],[-121.27270708658087,38.87468404062731],[-121.27276996865075,38.87559319877767],[-121.27313827791723,38.876509338687434],[-121.27497084109685,38.8789779622503],[-121.27674052220654,38.880376577769574],[-121.27997445722937,38.88201991582865],[-121.28263347047039,38.88425759164641],[-121.28381924664542,38.8847960218709],[-121.2844031515801,38.884942865769375],[-121.28523858479433,38.88364223782193],[-121.28639741151085,38.88276115374911],[-121.28731369310064,38.88234857887967],[-121.28911032366887,38.88193600161455],[-121.29004457156437,38.88158635798907],[-121.29268561849966,38.87980314873621],[-121.29427563655257,38.87950244629598],[-121.29566802524295,38.87983811405364],[-121.2937186810764,38.88465617025683],[-121.29351206856106,38.88566309573355],[-121.29346715279685,38.886586098216966],[-121.29407800719007,38.886586098216966],[-121.29406902403723,38.89050173297394],[-121.29345816964401,38.89049474096137],[-121.29345816964401,38.89523516751456],[-121.29359291693663,38.89613007979621],[-121.29394325989746,38.896927101552805],[-121.2948056425702,38.89794783565092],[-121.29696159925209,38.89932510429583],[-121.30264793500055,38.902589893299194],[-121.30194724907896,38.902827580854606],[-121.303133025254,38.90354762947475],[-121.30312404210116,38.904582249658475],[-121.2935659674781,38.90454729651997],[-121.29348511910254,38.919959960982425],[-121.29333240550424,38.92300714818861],[-121.29344020333833,38.92649447936941],[-121.29276646687526,38.92932475239692],[-121.28905642475182,38.941056951382066],[-121.29319765821162,38.94104996434863],[-121.2934132538798,38.941133808704194],[-121.2934761359497,38.94134341915926],[-121.29333240550424,38.95416341379807],[-121.29337732126845,38.9696211731743],[-121.29351206856106,38.97235194953491],[-121.29329647289288,38.984691510706824],[-121.29331443919855,38.984831165192375],[-121.3166975860442,38.98492194046028],[-121.31679640072545,39.00419159231709],[-121.31715572683909,39.005106072169994],[-121.31679640072545,39.006488240656054],[-121.31694911432375,39.01390122891388],[-121.30784019734277,39.01401290641186],[-121.30586390371771,39.01482256299797],[-121.30303421057275,39.01575784441178],[-121.30289048012726,39.01595327478658],[-121.30297132850285,39.02058062906783],[-121.30282759805738,39.021118024643506],[-121.29838992055382,39.02382587786276],[-121.29128424665645,39.02741990428507],[-121.29251493859569,39.02939479634869],[-121.29308986037753,39.029562275822954],[-121.29390732728609,39.02943666625445],[-121.29428461970541,39.02965299370585],[-121.29558717686739,39.03200463972924],[-121.29774313354928,39.034565542089595],[-121.29855161730498,39.03614250936298],[-121.3007794392096,39.037545003786136],[-121.30314200840684,39.03972893221371],[-121.30486677375234,39.04034293188287],[-121.30498355473927,39.04055224873231],[-121.30475897591823,39.04098483492269],[-121.30495660528074,39.04127089852916],[-121.30554051021544,39.041487189755344],[-121.30655560648648,39.04150114400526],[-121.30691493260012,39.041703480319384],[-121.30839715281891,39.04300818677375],[-121.3089361419894,39.04417333206342],[-121.3104632779724,39.04485706107052],[-121.3142811179299,39.04721517768987],[-121.3146494271964,39.047612840486906],[-121.31594300120553,39.04985924441664],[-121.31540401203505,39.04997086510891],[-121.31356246570262,39.051156824069714],[-121.31156820577186,39.05200093566897],[-121.30917868711612,39.052565996473994],[-121.30705866304558,39.052900845187985],[-121.30600763416317,39.05294967715945],[-121.3052710156302,39.05283806117503],[-121.3045074476387,39.05246833196668],[-121.30404930684378,39.05183350937698],[-121.30353726713184,39.05093358625741],[-121.30268386761192,39.04833141845973],[-121.30236047410965,39.047836088795215],[-121.30125554631017,39.0474454037926],[-121.30024943319196,39.04743842725504],[-121.29960264618741,39.04728494325477],[-121.29503022139124,39.04494078253498],[-121.29415885556564,39.0446407801614],[-121.29334138865708,39.04397100282305],[-121.2922544271633,39.0412918299671],[-121.2914279771019,39.037817126345125],[-121.29022423462118,39.03687515917608],[-121.28354975206017,39.03574478199759],[-121.28211244760558,39.035228430850275],[-121.27943546805892,39.0345934533207],[-121.27834850656514,39.03447483051234],[-121.27694713472191,39.03452367522225],[-121.27390184590874,39.03386077985062],[-121.27305742954167,39.03418873939061]]]}},{"type":"Feature","id":2,"properties":{"DISTRICT":4,"POPULATION":11350},"geometry":{"type":"Polygon","coordinates":[[[-121.23303748363413,38.86703266436876],[-121.23264222490914,38.867739087361784],[-121.23155526341536,38.86731943098461],[-121.23115102153749,38.86708861892122],[-121.23175289277785,38.8664031726188],[-121.22859082297775,38.86479444615676],[-121.22869862081184,38.86448668564205],[-121.22874353657605,38.861311078905686],[-121.228294378934,38.86120615555786],[-121.22787217075044,38.86053464246535],[-121.22793505282033,38.86014991856542],[-121.22861777243627,38.85940144974175],[-121.22771047399931,38.85786951235273],[-121.22782725498624,38.85739383558148],[-121.22882438495161,38.85615566200741],[-121.2315642465682,38.854672623478535],[-121.23146543188695,38.84995747478624],[-121.23149238134546,38.84524900999444],[-121.23172594331933,38.842149508710484],[-121.23166306124945,38.83916182550266],[-121.24216436692079,38.839210804927255],[-121.24230809736625,38.83902188410377],[-121.24707815152492,38.83914083431036],[-121.24706916837208,38.839217801985164],[-121.26470309739936,38.83919681080939],[-121.26552056430792,38.84531197814706],[-121.2668051551642,38.84524900999444],[-121.26784720089378,38.84559883235928],[-121.26850297105118,38.846221511912944],[-121.26873653302503,38.84684418601666],[-121.26887128031765,38.848096514059215],[-121.271341647349,38.84806153312828],[-121.27381201438033,38.8484952954562],[-121.27559966179571,38.84914593398902],[-121.27861800115036,38.85075501448041],[-121.27981276047824,38.85111880154672],[-121.28166328996353,38.85133567372029],[-121.28465467985964,38.851286702642135],[-121.28461874724827,38.86261211555624],[-121.2849062081392,38.86394810153571],[-121.28541824785114,38.86495532044106],[-121.28646927673357,38.86613039112949],[-121.28735860886485,38.86674589659613],[-121.29066440911042,38.86852943347923],[-121.29052067866496,38.86865532850962],[-121.29157170754736,38.86936872947036],[-121.29076322379167,38.86999120093031],[-121.2895055823939,38.8704737874122],[-121.2874574235461,38.87081649176492],[-121.28766403606144,38.872823726936275],[-121.28975711067345,38.87722965413993],[-121.28973016121492,38.878271650952044],[-121.28853540188705,38.87989405852578],[-121.28838268828875,38.88045350082447],[-121.28875998070808,38.88201292298126],[-121.28728674364213,38.88235557169404],[-121.2859482538688,38.88304086416231],[-121.2850589217375,38.88383803279873],[-121.2844031515801,38.884942865769375],[-121.28298381343119,38.88446737014115],[-121.27997445722937,38.88201991582865],[-121.27674052220654,38.880376577769574],[-121.27497084109685,38.8789779622503],[-121.27313827791723,38.876509338687434],[-121.27276996865075,38.87559319877767],[-121.27270708658087,38.87468404062731],[-121.27197945120072,38.87462809205355],[-121.27197046804787,38.87531345904706],[-121.27148537779446,38.87532045255374],[-121.27017383747965,38.87493580866414],[-121.26843110582844,38.8748658731878],[-121.26762262207274,38.87456514985546],[-121.26707464974943,38.873823826438866],[-121.2671105823608,38.8723341626089],[-121.2695989156978,38.872397106782735],[-121.2695989156978,38.87159281592251],[-121.26629311545224,38.87150888939533],[-121.2661763344653,38.86924982980744],[-121.26632006491076,38.86877422916692],[-121.26409224300615,38.86794192038937],[-121.26355325383568,38.8678579895516],[-121.26110085311004,38.86801885690362],[-121.25872930075997,38.86798388577111],[-121.25882811544122,38.86725648231439],[-121.2574087772923,38.86696971544458],[-121.25660927668945,38.86694873245749],[-121.25624995057578,38.86652907141472],[-121.2541389096581,38.86559181947482],[-121.25454315153597,38.86502526566852],[-121.2541389096581,38.86486439154248],[-121.25290821771885,38.86388514988035],[-121.25098582301085,38.86480144069842],[-121.24965631639036,38.86520712293785],[-121.24858732120227,38.86527007342272],[-121.24061926463212,38.86473848979863],[-121.23963111781958,38.864808435239425],[-121.23830161119909,38.865284062411796],[-121.23617260397573,38.86675988529481],[-121.23524733923308,38.8668927777949],[-121.23325307930233,38.86658502636355],[-121.23242662924093,38.86667595306146],[-121.23303748363413,38.86703266436876]]]}},{"type":"Feature","id":3,"properties":{"DISTRICT":2,"POPULATION":11701},"geometry":{"type":"Polygon","coordinates":[[[-121.26470309739936,38.83919681080939],[-121.28263347047039,38.839280775475366],[-121.29925230322658,38.83916182550266],[-121.30008773644082,38.83920380786868],[-121.30008773644082,38.83959564209038],[-121.30711256196263,38.839035878256034],[-121.30705866304558,38.84741088467735],[-121.30686103368308,38.85120974802259],[-121.30629509505407,38.85381916275912],[-121.30496558843359,38.857121019526964],[-121.30503745365631,38.85721895361565],[-121.32604904815187,38.857162991295766],[-121.32604904815187,38.853539337343065],[-121.33550830809365,38.853567319934214],[-121.33552627439933,38.857002099380786],[-121.33508609991013,38.8571559960027],[-121.3351040662158,38.85773660298697],[-121.33470880749077,38.85816331112198],[-121.33037892782134,38.859940068288104],[-121.32924705056335,38.8610242880548],[-121.32617481229165,38.86082143529111],[-121.32399190615124,38.861038277879246],[-121.3237852936359,38.8683405905156],[-121.33178029966456,38.86813775862551],[-121.3311155463543,38.86841053241246],[-121.33073825393498,38.86889312962536],[-121.33072927078214,38.872453057112715],[-121.33046875934974,38.873005564256175],[-121.3299387533321,38.873411199678046],[-121.3291033201179,38.873634997540535],[-121.32292291096313,38.87364898488354],[-121.32211442720742,38.87385180104779],[-121.32187188208071,38.87366996589289],[-121.32189883153924,38.87400566120015],[-121.32153950542559,38.87460711132707],[-121.32140475813299,38.876096727518046],[-121.32135085921594,38.882180751128665],[-121.31589808544133,38.87785205675779],[-121.31293364500372,38.875327446059735],[-121.30436371719324,38.86766914480431],[-121.30185741755055,38.86495532044106],[-121.29566802524295,38.87983811405364],[-121.2944373333037,38.87950244629598],[-121.29300002884912,38.87969125960478],[-121.29214662932921,38.880089863831344],[-121.29018830200981,38.88150943616057],[-121.28875998070808,38.88201292298126],[-121.28838268828875,38.88045350082447],[-121.28853540188705,38.87989405852578],[-121.28973016121492,38.878271650952044],[-121.28975711067345,38.87722965413993],[-121.28766403606144,38.872823726936275],[-121.2874574235461,38.87081649176492],[-121.2895055823939,38.8704737874122],[-121.29076322379167,38.86999120093031],[-121.29157170754736,38.86936872947036],[-121.29052067866496,38.86865532850962],[-121.29066440911042,38.86852943347923],[-121.28735860886485,38.86674589659613],[-121.28646927673357,38.86613039112949],[-121.28541824785114,38.86495532044106],[-121.2849062081392,38.86394810153571],[-121.28461874724827,38.86261211555624],[-121.28465467985964,38.851286702642135],[-121.28166328996353,38.85133567372029],[-121.27981276047824,38.85111880154672],[-121.27861800115036,38.85075501448041],[-121.27559966179571,38.84914593398902],[-121.27381201438033,38.8484952954562],[-121.271341647349,38.84806153312828],[-121.26887128031765,38.848096514059215],[-121.26873653302503,38.84684418601666],[-121.26850297105118,38.846221511912944],[-121.26784720089378,38.84559883235928],[-121.2668051551642,38.84524900999444],[-121.26552056430792,38.84531197814706],[-121.26470309739936,38.83919681080939]]]}},{"type":"Feature","id":4,"properties":{"DISTRICT":3,"POPULATION":11210},"geometry":{"type":"Polygon","coordinates":[[[-121.29451818167928,38.882698218754385],[-121.29483259202871,38.882747168199536],[-121.29543446326909,38.88256535580467],[-121.29676396988958,38.88299890767053],[-121.29838093740098,38.8830338714154],[-121.30100401803062,38.883593288993424],[-121.30296234535,38.88355133282784],[-121.30293539589147,38.88650918180136],[-121.30754375329903,38.886502189395806],[-121.30760663536891,38.8880894478009],[-121.30810070877517,38.88869777091664],[-121.30813664138653,38.88915226179856],[-121.3132300890475,38.889110308915896],[-121.31340076895148,38.89175329213355],[-121.31488298917027,38.89175329213355],[-121.31555672563337,38.89151556750931],[-121.3162214789436,38.89145963218798],[-121.31914998676984,38.89206093458386],[-121.3207579711284,38.89151556750931],[-121.32141374128582,38.891424672589764],[-121.32139577498015,38.8960811395723],[-121.32127001084037,38.89720675618957],[-121.34008073288982,38.89727666967667],[-121.34015259811254,38.91190804767897],[-121.31769471600956,38.91181018894732],[-121.31604181588678,38.911327883227216],[-121.30194724907896,38.902827580854606],[-121.30264793500055,38.902589893299194],[-121.29516496868385,38.89822748626799],[-121.29429360285825,38.897423487775576],[-121.2937186810764,38.89651460895343],[-121.29345816964401,38.89523516751456],[-121.29345816964401,38.89049474096137],[-121.29406902403723,38.89050173297394],[-121.29407800719007,38.886586098216966],[-121.29346715279685,38.886586098216966],[-121.2934761359497,38.8859637721019],[-121.2937186810764,38.88465617025683],[-121.29451818167928,38.882698218754385]]]}},{"type":"Feature","id":5,"properties":{"DISTRICT":1,"POPULATION":11742},"geometry":{"type":"Polygon","coordinates":[[[-121.30008773644082,38.83920380786868],[-121.30024943319196,38.82466943253431],[-121.30305217687842,38.82467643102179],[-121.30304319372559,38.8248303975722],[-121.30666340432059,38.82484439451483],[-121.30716646087967,38.82481640062683],[-121.30716646087967,38.82463444008661],[-121.32588735140074,38.82468342950859],[-121.32588735140074,38.82459944762172],[-121.33095384960316,38.82448047311245],[-121.34925253194068,38.824557456641145],[-121.38814958374307,38.824354499885914],[-121.43298449957346,38.824326505805324],[-121.43291263435073,38.85834518594227],[-121.43327196046437,38.867955908852714],[-121.4329934827263,38.88432052525989],[-121.43303839849051,38.89720675618957],[-121.45000757420753,38.89696205844264],[-121.46948304956723,38.89695506706603],[-121.4695638979428,38.906015313520804],[-121.4693662685803,38.925998296415074],[-121.41464090147174,38.92622192859873],[-121.41459598570754,38.92630579048584],[-121.41441632265072,38.92622192859873],[-121.41450615417912,38.95254270327626],[-121.4143893731922,38.958494441079445],[-121.41460496886037,38.95910216082666],[-121.41485649713992,38.991911286536876],[-121.41464090147174,38.99601659462573],[-121.41479361507004,38.99645643493897],[-121.41480259822288,38.99842521045292],[-121.41213460182905,38.99899768099627],[-121.40790353684085,38.999053531533015],[-121.40672674381865,38.99977260325589],[-121.40634945139932,39.00017053301003],[-121.40646623238626,39.000379968823815],[-121.40603504104986,39.00095242355176],[-121.40519062468282,39.001552797924454],[-121.40360958978275,39.00227184424744],[-121.40229804946794,39.00350746988842],[-121.40129193634972,39.003856512770476],[-121.4008068460963,39.0043730930755],[-121.39995344657639,39.0049804191503],[-121.39767172575472,39.005894888806125],[-121.39695307352741,39.00843579586685],[-121.39687222515185,39.00946888582476],[-121.39523729133477,39.01046007957341],[-121.39297353681879,39.01083002860997],[-121.38973061864311,39.01275652439156],[-121.38828433103568,39.01450149339192],[-121.38456530575941,39.01450149339192],[-121.38461022152362,39.01552053537347],[-121.3858229471572,39.0163511135235],[-121.38510429492989,39.01772608279946],[-121.37708233944271,39.02102031666084],[-121.37525875941594,39.024921551881356],[-121.37239313365961,39.027733936747865],[-121.3656557690287,39.031746450963006],[-121.36120012521948,39.032604750514835],[-121.36039164146376,39.032318651822415],[-121.35930467996998,39.03102072613598],[-121.35911603376032,39.0304206019],[-121.35879264025805,39.0302321897516],[-121.35839738153301,39.030218233276194],[-121.35387885565389,39.0313068300826],[-121.3487764248401,39.03446087487476],[-121.34292839234048,39.036282062294006],[-121.34149108788587,39.036547212103606],[-121.33982022145743,39.0374961611646],[-121.33931716489833,39.037545003786136],[-121.3380954561119,39.037977608388644],[-121.33719714082781,39.0385078942882],[-121.3357598363732,39.038793967923496],[-121.33125927679976,39.04281980818578],[-121.32913026957641,39.04390123398511],[-121.32831280266785,39.04410356342529],[-121.32738753792522,39.0441593783413],[-121.32674075092064,39.04407565595075],[-121.32600413238767,39.04390821087199],[-121.3240278387626,39.04291050905011],[-121.32354274850918,39.042840739164824],[-121.32302172564438,39.04300818677375],[-121.32100051625511,39.0441105402922],[-121.32073102166989,39.04437566072429],[-121.32013813358238,39.0457291547922],[-121.32034474609772,39.04600124582976],[-121.3198416895386,39.04845699444247],[-121.31856608183516,39.04926625653118],[-121.31792827798344,39.04934997276976],[-121.31743420457717,39.04967088409846],[-121.31594300120553,39.04985924441664],[-121.3146494271964,39.047612840486906],[-121.3142811179299,39.04721517768987],[-121.3104632779724,39.04485706107052],[-121.3089361419894,39.04417333206342],[-121.30839715281891,39.04300818677375],[-121.30691493260012,39.041703480319384],[-121.30655560648648,39.04150114400526],[-121.30554051021544,39.041487189755344],[-121.30495660528074,39.04127089852916],[-121.30475897591823,39.04098483492269],[-121.30498355473927,39.04055224873231],[-121.30486677375234,39.04034293188287],[-121.30314200840684,39.03972893221371],[-121.3007794392096,39.037545003786136],[-121.29855161730498,39.03614250936298],[-121.29774313354928,39.034565542089595],[-121.29558717686739,39.03200463972924],[-121.29428461970541,39.02965299370585],[-121.29390732728609,39.02943666625445],[-121.29308986037753,39.029562275822954],[-121.29251493859569,39.02939479634869],[-121.29128424665645,39.02741990428507],[-121.29838992055382,39.02382587786276],[-121.30282759805738,39.021118024643506],[-121.30297132850285,39.02058062906783],[-121.30289048012726,39.01595327478658],[-121.30303421057275,39.01575784441178],[-121.30586390371771,39.01482256299797],[-121.30784019734277,39.01401290641186],[-121.31694911432375,39.01390122891388],[-121.31679640072545,39.006488240656054],[-121.31715572683909,39.005106072169994],[-121.31679640072545,39.00419159231709],[-121.3166975860442,38.98492194046028],[-121.29331443919855,38.984831165192375],[-121.29351206856106,38.97235194953491],[-121.29337732126845,38.9696211731743],[-121.29333240550424,38.95416341379807],[-121.2934761359497,38.94134341915926],[-121.2934132538798,38.941133808704194],[-121.29319765821162,38.94104996434863],[-121.28905642475182,38.941056951382066],[-121.29276646687526,38.92932475239692],[-121.29344020333833,38.92649447936941],[-121.29333240550424,38.92300714818861],[-121.29348511910254,38.919959960982425],[-121.2935659674781,38.90454729651997],[-121.30312404210116,38.904582249658475],[-121.303133025254,38.90354762947475],[-121.31604181588678,38.911327883227216],[-121.31769471600956,38.91181018894732],[-121.34015259811254,38.91190804767897],[-121.34008073288982,38.89727666967667],[-121.32127001084037,38.89720675618957],[-121.32139577498015,38.8960811395723],[-121.32141374128582,38.891424672589764],[-121.3207579711284,38.89151556750931],[-121.31914998676984,38.89206093458386],[-121.3162214789436,38.89145963218798],[-121.31555672563337,38.89151556750931],[-121.31488298917027,38.89175329213355],[-121.31340076895148,38.89175329213355],[-121.3132300890475,38.889110308915896],[-121.30813664138653,38.88915226179856],[-121.30810070877517,38.88869777091664],[-121.30760663536891,38.8880894478009],[-121.30754375329903,38.886502189395806],[-121.30293539589147,38.88650918180136],[-121.30296234535,38.88355133282784],[-121.30100401803062,38.883593288993424],[-121.29838093740098,38.8830338714154],[-121.29676396988958,38.88299890767053],[-121.29543446326909,38.88256535580467],[-121.29483259202871,38.882747168199536],[-121.29451818167928,38.882698218754385],[-121.30185741755055,38.86495532044106],[-121.30436371719324,38.86766914480431],[-121.31293364500372,38.875327446059735],[-121.31589808544133,38.87785205675779],[-121.32135085921594,38.882180751128665],[-121.32140475813299,38.876096727518046],[-121.32153950542559,38.87460711132707],[-121.32189883153924,38.87400566120015],[-121.32187188208071,38.87366996589289],[-121.32211442720742,38.87385180104779],[-121.32292291096313,38.87364898488354],[-121.3291033201179,38.873634997540535],[-121.3299387533321,38.873411199678046],[-121.33046875934974,38.873005564256175],[-121.33072927078214,38.872453057112715],[-121.33073825393498,38.86889312962536],[-121.3311155463543,38.86841053241246],[-121.33178029966456,38.86813775862551],[-121.3237852936359,38.8683405905156],[-121.32399190615124,38.861038277879246],[-121.32617481229165,38.86082143529111],[-121.32924705056335,38.8610242880548],[-121.33037892782134,38.859940068288104],[-121.33470880749077,38.85816331112198],[-121.3351040662158,38.85773660298697],[-121.33508609991013,38.8571559960027],[-121.33552627439933,38.857002099380786],[-121.33550830809365,38.853567319934214],[-121.32604904815187,38.853539337343065],[-121.32604904815187,38.857162991295766],[-121.30503745365631,38.85721895361565],[-121.30496558843359,38.857121019526964],[-121.30629509505407,38.85381916275912],[-121.30686103368308,38.85120974802259],[-121.30705866304558,38.84741088467735],[-121.30711256196263,38.839035878256034],[-121.30008773644082,38.83959564209038],[-121.30008773644082,38.83920380786868]]]}}]}